name;url;description;physical_address;hours;phone1_number;phone1_label;phone1_has_clerk;phone2_number;phone2_label;phone2_has_clerk;phone3_number;phone3_label;phone3_has_clerk;phone4_number;phone4_label;phone4_has_clerk;phone5_number;phone5_label;phone5_has_clerk;phone6_number;phone6_label;phone6_has_clerk;phone7_number;phone7_label;phone7_has_clerk;phone8_number;phone8_label;phone8_has_clerk;phone9_number;phone9_label;phone9_has_clerk;phone10_number;phone10_label;phone10_has_clerk;fax1_number;fax1_label;fax1_has_clerk;fax2_number;fax2_label;fax2_has_clerk;fax3_number;fax3_label;fax3_has_clerk;fax4_number;fax4_label;fax4_has_clerk;fax5_number;fax5_label;fax5_has_clerk;ada_coordinators;notes;mailing_address
"Barnstable District Court";https://www.mass.gov/locations/barnstable-district-court;"The Barnstable District Court serves Barnstable, Yarmouth, and Sandwich.";"3195 Main St., Barnstable, MA 02630";"Monday - Friday: \n 8:30 am-4:30 pm";"(508) 375-6778";Assumed primary number;false;"(508) 375-6778";"Criminal Department";false;"(508) 375-6785";"Civil Department";false;"(508) 375-6827";"Small Claims Department";false;"(508) 375-6825";"Summary Process (Eviction) Department";false;"(508) 375-6789";"Bookkeeping Department";false;"(508) 375-6800";"Probation Department";false;N/A;N/A;false;N/A;N/A;false;N/A;N/A;false;N/A;N/A;false;N/A;N/A;false;N/A;N/A;false;N/A;N/A;false;N/A;N/A;false;N/A;N/A;false;N/A;N/A;false;"\"Louise Johnson\".";None detected;Not yet handled
"Falmouth District Court";https://www.mass.gov/locations/falmouth-district-court;"This court serves Bourne, Falmouth, and Mashpee.";"161 Jones Rd., Falmouth, MA 02540";"Monday - Friday: \n 8:30 am-4:30 pm";"(508) 495-1500";Assumed primary number;false;"(508) 495-1500";"Clerk's office";true;"(508) 495-1500";"Criminal Department";false;"(508) 495-1500";"Motor Vehicle Hearings";false;"(508) 495-1500";"Small Claims";false;"(508) 495-1500";"Civil Department";false;"(508) 495-1500";"Restraining Orders";false;"(508) 495-1500";"Summary Process (evictions)";false;"(508) 495-1500";"Supplementary Process";false;"(508) 495-1500";"Probation Department";false;N/A;N/A;false;"(508) 495-0992";"Clerk's Office";true;"(508) 495-0891";"Probation Department";false;N/A;N/A;false;N/A;N/A;false;N/A;N/A;false;N/A;N/A;false;"\"Aja Frigon\".";None detected;Not yet handled
"Orleans District Court";https://www.mass.gov/locations/orleans-district-court;"This court serves Brewster, Chatham, Dennis, Eastham, Orleans, Harwich, Truro, Wellfleet, and Provincetown.";"237 Rock Harbor Road, Orleans, MA 02653";"Monday - Friday: \n 8:30 am-4:30 pm";"(508) 255-4700";"Clerk’s Office & Probation Department";true;"(508) 255-1924";"TTY";false;N/A;N/A;false;N/A;N/A;false;N/A;N/A;false;N/A;N/A;false;N/A;N/A;false;N/A;N/A;false;N/A;N/A;false;N/A;N/A;false;N/A;N/A;false;"(508) 240-1150";"Probation Department";false;N/A;N/A;false;N/A;N/A;false;N/A;N/A;false;N/A;N/A;false;N/A;N/A;false;"\"Marion Broiderick\". \"Jurors Only\".";None detected;Not yet handled
"Barnstable Juvenile Court";https://www.mass.gov/locations/barnstable-juvenile-court;"The Barnstable County, town of Plymouth Division of the Juvenile Court in Barnstable serves Barnstable, Sandwich, Yarmouth.\n\nThe mailing address for this court is:\n\n3195 Main Street, P.O. Box 427, Barnstable, MA 02630";"3195 Main Street, Barnstable, MA 02630";"Hours vary";"(508) 362-1389";"Clerk's Office";true;"(508) 362-8606";"Probation Department";false;N/A;N/A;false;N/A;N/A;false;N/A;N/A;false;N/A;N/A;false;N/A;N/A;false;N/A;N/A;false;N/A;N/A;false;N/A;N/A;false;N/A;N/A;false;N/A;N/A;false;N/A;N/A;false;N/A;N/A;false;N/A;N/A;false;N/A;N/A;false;N/A;N/A;false;"\"Anastatia (Statia) Andrade\".";None detected;Not yet handled
"Edgartown Juvenile Court";https://www.mass.gov/locations/edgartown-juvenile-court;"The Barnstable County-Town of Plymouth Division of the Juvenile Court in Edgartown serves Aquinnah, Chilmark, Edgartown, Gosnold, Oaks Bluff, Tisbury, West Tisbury";"81 Main Street, Edgartown, MA 02539";"Hours vary";"(508) 495-1696";Assumed primary number;false;N/A;N/A;false;N/A;N/A;false;N/A;N/A;false;N/A;N/A;false;N/A;N/A;false;N/A;N/A;false;N/A;N/A;false;N/A;N/A;false;N/A;N/A;false;N/A;N/A;false;N/A;N/A;false;N/A;N/A;false;N/A;N/A;false;N/A;N/A;false;N/A;N/A;false;N/A;N/A;false;None detected;None detected;Not yet handled
"Falmouth Juvenile Court";https://www.mass.gov/locations/falmouth-juvenile-court;"The Barnstable County-Town of Plymouth Division of the Juvenile Court in Falmouth serves Bourne, Falmouth, and Mashpee.";"161 Jones Rd., Falmouth, MA 02540";"Hours vary";"(508) 495-1696";"Clerk's Office";true;"(508) 495-1693";"Probation Department";false;N/A;N/A;false;N/A;N/A;false;N/A;N/A;false;N/A;N/A;false;N/A;N/A;false;N/A;N/A;false;N/A;N/A;false;N/A;N/A;false;N/A;N/A;false;N/A;N/A;false;N/A;N/A;false;N/A;N/A;false;N/A;N/A;false;N/A;N/A;false;N/A;N/A;false;"\"Tee Sadler\".";None detected;Not yet handled
"Nantucket Juvenile Court";https://www.mass.gov/locations/nantucket-juvenile-court;"The Barnstable County-Town of Plymouth Division of the Juvenile Court in Nantucket serves all towns in Nantucket County.";"16 Broad St., Nantucket, MA 02554";"Need to add something here";"(508) 325-4265";"Clerk's Office";true;"(508) 495-1696";"Clerk's Office";true;"(508) 325-4265";"Probation Department";false;"(508) 495-1693";"Probation Department";false;N/A;N/A;false;N/A;N/A;false;N/A;N/A;false;N/A;N/A;false;N/A;N/A;false;N/A;N/A;false;N/A;N/A;false;N/A;N/A;false;N/A;N/A;false;N/A;N/A;false;N/A;N/A;false;N/A;N/A;false;N/A;N/A;false;None detected;None detected;Not yet handled
"Orleans Juvenile Court";https://www.mass.gov/locations/orleans-juvenile-court;"The Barnstable County-Town of Plymouth Division of the Juvenile Court in Orleans serves Brewster, Chatham, Dennis, Eastham, Harwich, Orleans, Provincetown, Truro, and Wellfleet.";"237 Rock Harbor Rd., Orleans, MA 02653";"Hours vary";"(508) 240-5044";"Clerk's Office";true;"(508) 240-5030";"Probation Department";false;N/A;N/A;false;N/A;N/A;false;N/A;N/A;false;N/A;N/A;false;N/A;N/A;false;N/A;N/A;false;N/A;N/A;false;N/A;N/A;false;N/A;N/A;false;N/A;N/A;false;N/A;N/A;false;N/A;N/A;false;N/A;N/A;false;N/A;N/A;false;N/A;N/A;false;None detected;None detected;Not yet handled
"Plymouth Juvenile Court";https://www.mass.gov/locations/plymouth-juvenile-court;"The Barnstable County-Town of Plymouth Division of the Juvenile Court in Plymouth serves Duxbury, Halifax, Hanson, Kingston, Marshfield, Pembroke, Plymouth, and Plympton.";"52 Obery St., Suite 1092, Plymouth, MA 02360";"Hours vary";"(508) 747-0858";"Clerk's Office";true;"(508) 747-8400";"Probation Department";false;N/A;N/A;false;N/A;N/A;false;N/A;N/A;false;N/A;N/A;false;N/A;N/A;false;N/A;N/A;false;N/A;N/A;false;N/A;N/A;false;N/A;N/A;false;N/A;N/A;false;N/A;N/A;false;N/A;N/A;false;N/A;N/A;false;N/A;N/A;false;N/A;N/A;false;"\"Anastatia (Statia) Andrade\". \"Jurors Only\".";None detected;Not yet handled
"Barnstable Probate and Family Court";https://www.mass.gov/locations/barnstable-probate-and-family-court;"This court serves all cities and towns in Barnstable County.\n\nThe mailing address for this court is:\n\n3195 Main St. , P.O. Box 346, Barnstable, MA 02630";"3195 Main St. , Barnstable, MA 02630";"Monday - Friday: \n 8:30 am-4:30 pm";"(508) 375-6710";"Register's Office";false;"(508) 375-6710";"Register’s Office";false;"(508) 375-6725";"Probate and Estates";false;"(508) 375-6728";"Guardianships";false;"(508) 375-6725";"Equity";false;"(508) 375-6721";"Domestic Relations and Divorce";false;"(508) 375-6723";"Paternity";false;"(508) 375-6846";"Protection from Abuse";false;"(508) 375-6735";"Probation Department";false;N/A;N/A;false;N/A;N/A;false;"(508) 362-3662";"Register's Office";false;N/A;N/A;false;N/A;N/A;false;N/A;N/A;false;N/A;N/A;false;N/A;N/A;false;"\"Caitlin G. Ochoa\". \"Katharine H.  Prunty\". \"Meghan E. Tracy\".";None detected;Not yet handled
"Barnstable County Superior Court";https://www.mass.gov/locations/barnstable-county-superior-court;"This court serves the cities and towns of Barnstable County. \n\nThe mailing address for this court is: \n\n3195 Main St., P.O. Box 425, Barnstable, MA 02630.";"3195 Main St.,  Barnstable, MA 02630";"Monday - Friday: \n 8:30 am-4:30 pm";"(508) 375-6684";"Clerk's Office";true;"(508) 375-6650";"Probation Department";false;"(508) 375-6684";"Clerk's Office";true;"(508) 375-6650";"Probation Department";false;"(508) 362-8350";"TTY";false;N/A;N/A;false;N/A;N/A;false;N/A;N/A;false;N/A;N/A;false;N/A;N/A;false;N/A;N/A;false;N/A;N/A;false;N/A;N/A;false;N/A;N/A;false;N/A;N/A;false;N/A;N/A;false;N/A;N/A;false;"\"Christine Higginbotham\".";None detected;Not yet handled
"Southern Berkshire District Court";https://www.mass.gov/locations/southern-berkshire-district-court;"The Southern Berkshire District Court in Great Barrington serves Alford, Becket, Egremont, Great Barrington, Lee, Lenox, Monterey, Mt. Washington, New Marlborough, Otis, Sandisfield, Sheffield, Stockbridge, Tyringham, and West Stockbridge. Pittsfield District Court exercises concurrent jurisdiction in Becket and Lenox.";"9 Gilmore Ave., Great Barrington, MA 01230";"Monday - Friday: \n 8:30 am-4:30 pm";"(413) 528-3520";"Clerk’s Office & Probation Department";true;N/A;N/A;false;N/A;N/A;false;N/A;N/A;false;N/A;N/A;false;N/A;N/A;false;N/A;N/A;false;N/A;N/A;false;N/A;N/A;false;N/A;N/A;false;N/A;N/A;false;"(413) 528-0757";"Clerk’s Office";true;N/A;N/A;false;N/A;N/A;false;N/A;N/A;false;N/A;N/A;false;N/A;N/A;false;"\"Calandra Austin\".";None detected;Not yet handled
"Northern Berkshire District Court";https://www.mass.gov/locations/northern-berkshire-district-court;"The Northern Berkshire District Court in North Adams serves Adams, Cheshire, Clarksburg, Florida, Hancock, New Ashford, North Adams, Savoy, Williamstown, and Windsor. Note: Pittsfield Division Exercising Concurrent Jurisdiction in Windsor and Hancock";"111 Holden St., North Adams, MA 01247";"Monday - Friday: \n 8:30 am-4:30 pm";"(413) 663-5339";"Clerk’s Office";true;"(413) 663-5369";"Probation Department";false;N/A;N/A;false;N/A;N/A;false;N/A;N/A;false;N/A;N/A;false;N/A;N/A;false;N/A;N/A;false;N/A;N/A;false;N/A;N/A;false;N/A;N/A;false;"(413) 664-7209";"Clerk’s Office";true;N/A;N/A;false;N/A;N/A;false;N/A;N/A;false;N/A;N/A;false;N/A;N/A;false;"\"Timothy Morey\". \"Jurors Only\".";None detected;Not yet handled
"Pittsfield District Court";https://www.mass.gov/locations/pittsfield-district-court;"This court serves Becket, Dalton, Hancock, Hinsdale, Lanesborough, Lenox, Peru, Pittsfield, Richmond, Washington, and Windsor.\n\nThe mailing address for this court is:\n\n24 Wendell Ave., P.O. Box 875, Pittsfield, MA 01202";"24 Wendell Ave., Pittsfield, MA 01202";"Monday - Friday: \n 8:30 am-4:30 pm";"(413) 499-0558";"Clerk’s Office";true;"(413) 442-1441";"Probation Department";false;N/A;N/A;false;N/A;N/A;false;N/A;N/A;false;N/A;N/A;false;N/A;N/A;false;N/A;N/A;false;N/A;N/A;false;N/A;N/A;false;N/A;N/A;false;"(413) 499-7327";"Clerk’s Office";true;"(413) 442-0645";"Probation Department";false;N/A;N/A;false;N/A;N/A;false;N/A;N/A;false;N/A;N/A;false;"\"Shannon Crouse\".";None detected;Not yet handled
"Western Housing Court - Pittsfield Session";https://www.mass.gov/locations/western-housing-court-pittsfield-session;"The Pittsfield session of the Western Housing Court serves cities and towns in Berkshire County on Wednesday mornings.";"76 East St. , Room 2, Pittsfield, MA 01201";"Wednesday mornings only \n Wednesday: \n 8:30 am-1:00 pm";"(413) 748-7838";"Clerk's Office";true;"(413) 748-7838";"Housing Specialist Department";false;N/A;N/A;false;N/A;N/A;false;N/A;N/A;false;N/A;N/A;false;N/A;N/A;false;N/A;N/A;false;N/A;N/A;false;N/A;N/A;false;N/A;N/A;false;"(413) 732-4607";"Clerk's Office";true;"(413) 732-4607";"Housing Specialist Department";false;N/A;N/A;false;N/A;N/A;false;N/A;N/A;false;N/A;N/A;false;"\"Elizabeth Cruz\".";None detected;Not yet handled
"Great Barrington Juvenile Court";https://www.mass.gov/locations/great-barrington-juvenile-court;"The Berkshire County Juvenile Court in Great Barrington serves Alford, Becket, Egremont, Great Barrington, Lee, Lenox, Monterey, Mt. Washington, New Marlborough, Otis, Sandisfield, Sheffield, Stockbridge, Tyringham, and West Stockbridge (Pittsfield Juvenile Court exercises concurrent jurisdiction in Becket and Lenox).";"9 Gilmore Ave., Great Barrington, MA 01230";"Monday - Friday: \n 8:30 am-4:30 pm";"(413) 528-3520";"Clerk's Office";true;"(413) 528-3520";"Probation Department";false;N/A;N/A;false;N/A;N/A;false;N/A;N/A;false;N/A;N/A;false;N/A;N/A;false;N/A;N/A;false;N/A;N/A;false;N/A;N/A;false;N/A;N/A;false;N/A;N/A;false;N/A;N/A;false;N/A;N/A;false;N/A;N/A;false;N/A;N/A;false;N/A;N/A;false;"\"Calandra Austin\".";None detected;Not yet handled
"North Adams Juvenile Court";https://www.mass.gov/locations/north-adams-juvenile-court;"The Berkshire County Juvenile Court in North Adams serves Adams, Cheshire, Clarksburg, Florida, Hancock, New Ashford, North Adams, Savoy, Williamstown, and Windsor (Pittsfield Division exercises concurrent jurisdiction in Windsor and Hancock).";"111 Holden St., 2nd floor, North Adams, MA 01247";"Monday - Friday: \n 8:30 am-4:30 pm";"(413) 664-8700";"Clerk's Office";true;"(413) 664-3203";"Probation Department";false;"(413) 662-4000";"TTY";false;N/A;N/A;false;N/A;N/A;false;N/A;N/A;false;N/A;N/A;false;N/A;N/A;false;N/A;N/A;false;N/A;N/A;false;N/A;N/A;false;"413-664-7788";None detected;false;N/A;N/A;false;N/A;N/A;false;N/A;N/A;false;N/A;N/A;false;N/A;N/A;false;"\"Julie Salatino\".";None detected;Not yet handled
"Pittsfield Juvenile Court";https://www.mass.gov/locations/pittsfield-juvenile-court;"The Berkshire County Juvenile Court in Pittsfield serves Becket, Dalton, Hancock, Hinsdale, Lanesborough, Lenox, Peru, Pittsfield, Richmond, Washington, Windsor. \n\n(This court exercises concurrent jurisdiction in Windsor and Hancock)";"190 North Street, Pittsfield, MA 01201";"Monday - Friday: \n 8:30 am-4:30 pm";"(413) 443-8533";"Clerk's Office";true;"(413) 443-8628";"Probation Department";false;"(413) 443-8319";"TTY";false;N/A;N/A;false;N/A;N/A;false;N/A;N/A;false;N/A;N/A;false;N/A;N/A;false;N/A;N/A;false;N/A;N/A;false;N/A;N/A;false;"413-443-8672";"Clerk's Office / Probation Department";true;N/A;N/A;false;N/A;N/A;false;N/A;N/A;false;N/A;N/A;false;N/A;N/A;false;"\"Julie Salatino\".";None detected;Not yet handled
"Berkshire Probate and Family Court";https://www.mass.gov/locations/berkshire-probate-and-family-court;"This location serves all cities and towns of Berkshire County.";"44 Bank Row, Pittsfield, MA 01201";"Monday - Friday: \n 8:30 am-4:00 pm";"(413) 442-6941";"Register's Office";false;"(413) 443-9469";"Probation Department";false;N/A;N/A;false;N/A;N/A;false;N/A;N/A;false;N/A;N/A;false;N/A;N/A;false;N/A;N/A;false;N/A;N/A;false;N/A;N/A;false;N/A;N/A;false;"(413) 443-3430";"Register's Office";false;N/A;N/A;false;N/A;N/A;false;N/A;N/A;false;N/A;N/A;false;N/A;N/A;false;"\"Alida McDarby\". \"Karen Lacey\".";None detected;Not yet handled
"Berkshire County Superior Court";https://www.mass.gov/locations/berkshire-county-superior-court;"This court serves all cities and towns of Berkshire County.";"76 East St., Pittsfield, MA 01201";"Monday - Friday: \n 8:30 am-4:30 pm";"(413) 499-7487";"Clerk's Office";true;"(413) 499-2515";"Probation Department";false;N/A;N/A;false;N/A;N/A;false;N/A;N/A;false;N/A;N/A;false;N/A;N/A;false;N/A;N/A;false;N/A;N/A;false;N/A;N/A;false;N/A;N/A;false;"(413) 442-9190";"Clerk's Office";true;"(413) 499-6027";"Probation Department";false;N/A;N/A;false;N/A;N/A;false;N/A;N/A;false;N/A;N/A;false;"\"Michele Dillon\".";None detected;Not yet handled
"Attleboro District Court";https://www.mass.gov/locations/attleboro-district-court;"The Attleboro District Court serves Attleboro, Mansfield, North Attleboro, and Norton.";"88 North Main St., Attleboro, MA 02703";"Monday - Friday: \n 8:30 am-4:30 pm";"(508) 222-5900";Assumed primary number;false;"(508) 222-5900";"Clerk's Office";true;"(508) 222-5900 x303";"Judge's Lobby";false;"(508) 222-5900 x392";"Civil and Small Claims";false;"(508) 222-5900 x390";"Criminal";false;"( 508) 222-5900 x391";"Probation Department";false;"(508) 223-4852";"TTY";false;N/A;N/A;false;N/A;N/A;false;N/A;N/A;false;N/A;N/A;false;N/A;N/A;false;N/A;N/A;false;N/A;N/A;false;N/A;N/A;false;N/A;N/A;false;N/A;N/A;false;"\"Virginia Richardson\". \"Colleen McNulty\". \"Jurors Only\".";None detected;Not yet handled
"Fall River District Court";https://www.mass.gov/locations/fall-river-district-court;"This court serves Fall River, Freetown, Somerset, Swansea, and Westport.";"186 S. Main St., 5th Floor, Fall River, MA 02720";"Monday - Friday: \n 8:30 am-4:30 pm";"(508) 491-3200";"Clerk’s Office";true;"(508) 491-3235";"Civil Department";false;"(508) 491-3225";"Criminal Department";false;"(508) 491-3240";"Probation Department";false;N/A;N/A;false;N/A;N/A;false;N/A;N/A;false;N/A;N/A;false;N/A;N/A;false;N/A;N/A;false;N/A;N/A;false;N/A;N/A;false;N/A;N/A;false;N/A;N/A;false;N/A;N/A;false;N/A;N/A;false;N/A;N/A;false;"\"Maura Donovan\". \"Jurors Only\".";None detected;Not yet handled
"New Bedford District Court";https://www.mass.gov/locations/new-bedford-district-court;"This court serves Acushnet, Dartmouth, Fairhaven, Freetown, New Bedford, and Westport.";"75 N. Sixth St., New Bedford, MA 02740";"Monday - Friday: \n 8:30 am-4:30 pm";"(508) 999-9700";"Clerk’s Office & Probation Department";true;"(508) 991-3027";"TTY";false;N/A;N/A;false;N/A;N/A;false;N/A;N/A;false;N/A;N/A;false;N/A;N/A;false;N/A;N/A;false;N/A;N/A;false;N/A;N/A;false;N/A;N/A;false;"(508) 990-8094";"Criminal and Civil Matters";false;"(508) 990-9332";"Small Claims";false;N/A;N/A;false;N/A;N/A;false;N/A;N/A;false;N/A;N/A;false;"\"John DiSanto\". \"Jurors Only\".";None detected;Not yet handled
"Taunton District Court";https://www.mass.gov/locations/taunton-district-court;"This court serves Berkley, Dighton, Easton, Raynham, Rehoboth, Seekonk, and Taunton.";"40 Broadway, Taunton, MA 02780";"Monday - Friday: \n 8:30 am-4:30 pm";"(508) 977-6000";"Clerk's Office and Probation Department";true;N/A;N/A;false;N/A;N/A;false;N/A;N/A;false;N/A;N/A;false;N/A;N/A;false;N/A;N/A;false;N/A;N/A;false;N/A;N/A;false;N/A;N/A;false;N/A;N/A;false;"(508) 824-2282";"Clerk's Office";true;"(508) 823-1103";"Probation Department";false;N/A;N/A;false;N/A;N/A;false;N/A;N/A;false;N/A;N/A;false;"\"Cheri Sigman\". \"Melissa Corr\". \"Jurors Only\".";None detected;Not yet handled
"Southeast Housing Court - Fall River Session";https://www.mass.gov/locations/southeast-housing-court-fall-river-session;"The Fall River Session of the Southeast Housing Court serves Freetown, Westport, Fall River, Somerset and Swansea.";"289 Rock St., Fall River, MA 02720";"Monday - Thursday: \n 8:30 am-4:30 pm";"(508) 677-1505";"Clerk’s Office & Housing Specialist Department";true;N/A;N/A;false;N/A;N/A;false;N/A;N/A;false;N/A;N/A;false;N/A;N/A;false;N/A;N/A;false;N/A;N/A;false;N/A;N/A;false;N/A;N/A;false;N/A;N/A;false;"(508) 672-9621";"Clerk’s Office & Housing Specialist Department";true;N/A;N/A;false;N/A;N/A;false;N/A;N/A;false;N/A;N/A;false;N/A;N/A;false;"\"Suzette Fagan Clarke\". \"Jurors Only\".";None detected;Not yet handled
"Southeast Housing Court - New Bedford Session";https://www.mass.gov/locations/southeast-housing-court-new-bedford-session;"The New Bedford Session of the Southeast Housing Court serves Acushnet, Dartmouth, Fairhaven, Freetown, New Bedford and Westport.";"139 Hathaway Road, New Bedford, MA 02746";"Monday: \n 8:30 am-4:30 pm\n \n\n Thursday - Friday: \n 8:30 am-4:30 pm";"(508) 994-0156";"Clerk’s Office & Housing Specialist Department";true;N/A;N/A;false;N/A;N/A;false;N/A;N/A;false;N/A;N/A;false;N/A;N/A;false;N/A;N/A;false;N/A;N/A;false;N/A;N/A;false;N/A;N/A;false;N/A;N/A;false;"(508) 994-7538";"Clerk’s Office & Housing Specialist Department";true;N/A;N/A;false;N/A;N/A;false;N/A;N/A;false;N/A;N/A;false;N/A;N/A;false;"\"Suzette Fagan Clarke\".";None detected;Not yet handled
"Southeast Housing Court - Taunton Session";https://www.mass.gov/locations/southeast-housing-court-taunton-session;"The Taunton Session of the Southeast Housing Court serves Attleboro, Berkley, Dighton, Easton, Mansfield, North Attleborough, Norton, Raynham, Rehoboth, Seekonk and Taunton.";"40 Broadway, Taunton, MA 02780";"Tuesday: \n 8:30 am-4:30 pm\n \n\n Thursday: \n 8:30 am-4:30 pm";"(508) 977-4950";"Clerk’s Office & Housing Specialist Department";true;N/A;N/A;false;N/A;N/A;false;N/A;N/A;false;N/A;N/A;false;N/A;N/A;false;N/A;N/A;false;N/A;N/A;false;N/A;N/A;false;N/A;N/A;false;N/A;N/A;false;"(508) 977-0485";"Clerk’s Office & Housing Specialist Department";true;N/A;N/A;false;N/A;N/A;false;N/A;N/A;false;N/A;N/A;false;N/A;N/A;false;"\"Suzette Fagan Clarke\". \"Jurors Only\".";None detected;Not yet handled
"Fall River Juvenile Court";https://www.mass.gov/locations/fall-river-juvenile-court;"The Bristol County Juvenile Court in Fall River serves Fall River, Freetown, Somerset, Swansea, and Westport.";"289 Rock St., 4th Floor, Fall River, MA 02720";"Monday - Friday: \n 8:30 am-4:30 pm";"(508) 676-0090";"Clerk's Office & Probation Department";true;N/A;N/A;false;N/A;N/A;false;N/A;N/A;false;N/A;N/A;false;N/A;N/A;false;N/A;N/A;false;N/A;N/A;false;N/A;N/A;false;N/A;N/A;false;N/A;N/A;false;N/A;N/A;false;N/A;N/A;false;N/A;N/A;false;N/A;N/A;false;N/A;N/A;false;N/A;N/A;false;"\"Casey Short\". \"Dawn Mello\".";None detected;Not yet handled
"Attleboro Juvenile Court";https://www.mass.gov/locations/attleboro-juvenile-court;"The Bristol County Juvenile Court in Attleboro serves Attleboro, Mansfield, North Attleboro, and Norton.";"88 North Main St., Attleboro, MA 02703";"Monday - Friday: \n 8:30 am-4:30 pm";"(508) 222-5350";"Clerk's Office";true;"(508) 222-8761";"Probation Department";false;N/A;N/A;false;N/A;N/A;false;N/A;N/A;false;N/A;N/A;false;N/A;N/A;false;N/A;N/A;false;N/A;N/A;false;N/A;N/A;false;N/A;N/A;false;N/A;N/A;false;N/A;N/A;false;N/A;N/A;false;N/A;N/A;false;N/A;N/A;false;N/A;N/A;false;"\"Casey Short\". \"Jurors Only\".";None detected;Not yet handled
"New Bedford Juvenile Court";https://www.mass.gov/locations/new-bedford-juvenile-court;"The Bristol County Juvenile Court in New Bedford serves Acushnet, Dartmouth, Fairhaven, Freetown, New Bedford, and Westport.";"75 N. Sixth St., New Bedford, MA 02740";"Monday - Friday: \n 8:30 am-4:30 pm";"(508) 999-9700";"Clerk's Office & Probation Department";true;"(508) 991-3027";"TTY";false;N/A;N/A;false;N/A;N/A;false;N/A;N/A;false;N/A;N/A;false;N/A;N/A;false;N/A;N/A;false;N/A;N/A;false;N/A;N/A;false;N/A;N/A;false;N/A;N/A;false;N/A;N/A;false;N/A;N/A;false;N/A;N/A;false;N/A;N/A;false;N/A;N/A;false;"\"Karin Butler\". \"Ann Pacheco\". \"Jurors Only\".";None detected;Not yet handled
"Taunton Juvenile Court";https://www.mass.gov/locations/taunton-juvenile-court;"The Bristol County Juvenile Court in Taunton serves Berkley, Dighton, Easton, Raynham, Rehoboth, Seekonk and Taunton.";"40 Broadway, Suite 1521, Taunton, MA 02780";"Monday - Friday: \n 8:30 am-4:30 pm";"(508) 977-4910";"Clerk's Office";true;"(508) 977-4930";"Probation Department";false;N/A;N/A;false;N/A;N/A;false;N/A;N/A;false;N/A;N/A;false;N/A;N/A;false;N/A;N/A;false;N/A;N/A;false;N/A;N/A;false;N/A;N/A;false;N/A;N/A;false;N/A;N/A;false;N/A;N/A;false;N/A;N/A;false;N/A;N/A;false;N/A;N/A;false;"\"Carol Fitzsimmons\". \"Amber Clark\". \"Jurors Only\".";None detected;Not yet handled
"Fall River Probate and Family Court";https://www.mass.gov/locations/fall-river-probate-and-family-court;"The Bristol Probate and Family Court in Fall River serves all the cities and towns in Bristol County.";"289 Rock Street, Fall River, MA 02720";"Monday - Friday: \n 8:30 am-4:30 pm";"(508) 672-1751";"Register's Office & Probation Department";false;N/A;N/A;false;N/A;N/A;false;N/A;N/A;false;N/A;N/A;false;N/A;N/A;false;N/A;N/A;false;N/A;N/A;false;N/A;N/A;false;N/A;N/A;false;N/A;N/A;false;"(508) 673-7068";"Register's Office & Probation Department";false;N/A;N/A;false;N/A;N/A;false;N/A;N/A;false;N/A;N/A;false;N/A;N/A;false;"\"Sharon Lemrise\".";None detected;Not yet handled
"New Bedford Probate and Family Court";https://www.mass.gov/locations/new-bedford-probate-and-family-court;"The Bristol Probate and Family Court in New Bedford serves all cities and towns in Bristol County.";"505 Pleasant Street, New Bedford, MA 02740";"Monday - Tuesday: \n 8:30 am-4:30 pm\n \n\n Thursday - Friday: \n 8:30 am-4:30 pm";"(508) 999-5249";"Register's Office & Probation Department";false;N/A;N/A;false;N/A;N/A;false;N/A;N/A;false;N/A;N/A;false;N/A;N/A;false;N/A;N/A;false;N/A;N/A;false;N/A;N/A;false;N/A;N/A;false;N/A;N/A;false;"(508) 999-1211";"Register's Office";false;"(508) 999-1269";"Probation Department";false;N/A;N/A;false;N/A;N/A;false;N/A;N/A;false;N/A;N/A;false;"\"Sharon Lemrise\".";None detected;Not yet handled
"Bristol Probate and Family Court";https://www.mass.gov/locations/bristol-probate-and-family-court;"The Bristol Probate and Family Court in Taunton serves all the cities and towns in Bristol County.";"40 Broadway, Suite 240, Taunton, MA 02780";"Monday - Friday: \n 8:30 am-4:30 pm";"(508) 977-6040";"Register's Office";false;"(508) 977-4980";"Probation Department";false;N/A;N/A;false;N/A;N/A;false;N/A;N/A;false;N/A;N/A;false;N/A;N/A;false;N/A;N/A;false;N/A;N/A;false;N/A;N/A;false;N/A;N/A;false;"(508) 977-6088";None detected;false;N/A;N/A;false;N/A;N/A;false;N/A;N/A;false;N/A;N/A;false;N/A;N/A;false;"\"Sharon Lemrise\". \"Jurors Only\".";None detected;Not yet handled
"Bristol County Superior Court";https://www.mass.gov/locations/bristol-county-superior-court;"The Bristol County Superior Court in Taunton serves the cities and towns of Bristol County. This location only handles criminal matters.";"9 Court St., Taunton, MA 02780";"Monday - Friday: \n 8:00 am-4:30 pm";"(508) 823-6588";"Clerk's Office";true;"(508) 491-3300";"Probation Department";false;"(508) 491-2800";"TTY";false;N/A;N/A;false;N/A;N/A;false;N/A;N/A;false;N/A;N/A;false;N/A;N/A;false;N/A;N/A;false;N/A;N/A;false;N/A;N/A;false;"(508) 821-9563";"Probation Department";false;N/A;N/A;false;N/A;N/A;false;N/A;N/A;false;N/A;N/A;false;N/A;N/A;false;"\"Aaron Strojny\".";None detected;Not yet handled
"Bristol County Superior Court-New Bedford";https://www.mass.gov/locations/bristol-county-superior-court-new-bedford;"The Bristol County Superior Court in New Bedford serves the cities and towns of Bristol County. This location handles  only civil matters.";"441 County St., 1st Floor, New Bedford, MA 02740";"Monday - Friday: \n 8:00 am-4:30 pm";"(508) 996-2051";"Clerk's Office";true;"(508) 996-2051";"Clerk's Office";true;"(508) 491-3300";"Probation Department";false;N/A;N/A;false;N/A;N/A;false;N/A;N/A;false;N/A;N/A;false;N/A;N/A;false;N/A;N/A;false;N/A;N/A;false;N/A;N/A;false;N/A;N/A;false;N/A;N/A;false;N/A;N/A;false;N/A;N/A;false;N/A;N/A;false;N/A;N/A;false;"\"Jennifer Sullivan\". \"Jurors Only\".";"\"Clerk's Office\". \"Probation Department\".";Not yet handled
"Bristol County Superior Court-Fall River";https://www.mass.gov/locations/bristol-county-superior-court-fall-river;"This court serves the cities and towns of Bristol County. This location handles only criminal matters.";"186 S. Main St., Fall River, MA 02720";"Monday - Friday: \n 8:30 am-4:30 pm";"(508) 491-3300";"Clerk's Office & Probation Department";true;N/A;N/A;false;N/A;N/A;false;N/A;N/A;false;N/A;N/A;false;N/A;N/A;false;N/A;N/A;false;N/A;N/A;false;N/A;N/A;false;N/A;N/A;false;N/A;N/A;false;"(508) 821-9563";"Probation Department";false;N/A;N/A;false;N/A;N/A;false;N/A;N/A;false;N/A;N/A;false;N/A;N/A;false;"\"Jennifer Sullivan\". \"Jurors Only\".";"\"Probation Department\".";Not yet handled
"Edgartown District Court";https://www.mass.gov/locations/edgartown-district-court;"This court serves Edgartown, Oak Bluffs, Tisbury, West Tisbury, Chilmark, Aquinnah (formerly Gay Head), Gosnold, and Elizabeth Islands.";"81 Main St., Edgartown, MA 02539";"Monday - Friday: \n 8:30 am-4:30 pm";"(508) 627-3751";"Clerk's Office";true;"(508) 627-4291";"Probation Department";false;N/A;N/A;false;N/A;N/A;false;N/A;N/A;false;N/A;N/A;false;N/A;N/A;false;N/A;N/A;false;N/A;N/A;false;N/A;N/A;false;N/A;N/A;false;N/A;N/A;false;N/A;N/A;false;N/A;N/A;false;N/A;N/A;false;N/A;N/A;false;N/A;N/A;false;None detected;"\"Clerk's Office mailing address\". \"Probation Department mailing address\".";Not yet handled
"Edgartown Juvenile Court";https://www.mass.gov/locations/edgartown-juvenile-court;"The Barnstable County-Town of Plymouth Division of the Juvenile Court in Edgartown serves Aquinnah, Chilmark, Edgartown, Gosnold, Oaks Bluff, Tisbury, West Tisbury";"81 Main Street, Edgartown, MA 02539";"Hours vary";"(508) 495-1696";Assumed primary number;false;N/A;N/A;false;N/A;N/A;false;N/A;N/A;false;N/A;N/A;false;N/A;N/A;false;N/A;N/A;false;N/A;N/A;false;N/A;N/A;false;N/A;N/A;false;N/A;N/A;false;N/A;N/A;false;N/A;N/A;false;N/A;N/A;false;N/A;N/A;false;N/A;N/A;false;N/A;N/A;false;None detected;None detected;Not yet handled
"Dukes Probate and Family Court";https://www.mass.gov/locations/dukes-probate-and-family-court;"This court serves all the towns of Dukes County.\n\nThe mailing address for this court is:\n\n81 Main St., P.O. Box 237, Edgartown, MA 02539";"81 Main St., Edgartown, MA 02539";"Monday - Friday: \n 8:30 am-4:30 pm";"(508) 627-4703";"Clerk's Office";true;"(508) 897-5418";"Probation Department";false;N/A;N/A;false;N/A;N/A;false;N/A;N/A;false;N/A;N/A;false;N/A;N/A;false;N/A;N/A;false;N/A;N/A;false;N/A;N/A;false;N/A;N/A;false;"(508) 627-7664";"Clerk's Office";true;N/A;N/A;false;N/A;N/A;false;N/A;N/A;false;N/A;N/A;false;N/A;N/A;false;"\"Mallory Calamare\".";None detected;Not yet handled
"Dukes County Superior Court";https://www.mass.gov/locations/dukes-county-superior-court;"This court serves all the towns of Dukes County.\n\nThe mailing address for this court is:\n\n81 Main St., P.O. Box 1267, Edgartown, MA 02539";"81 Main St., Edgartown, MA 02539";"Monday - Friday: \n 8:00 am-4:00 pm";"(508) 627-4668";Assumed primary number;false;"(508) 627-4668";"Clerk's Office";true;"(508) 375-6650";"Probation Department";false;N/A;N/A;false;N/A;N/A;false;N/A;N/A;false;N/A;N/A;false;N/A;N/A;false;N/A;N/A;false;N/A;N/A;false;N/A;N/A;false;N/A;N/A;false;N/A;N/A;false;N/A;N/A;false;N/A;N/A;false;N/A;N/A;false;N/A;N/A;false;"\"Deanna L. Ruiz\". \"Jurors Only\".";"\"Clerk's Office mailing address\". \"Probation Department mailing address\".";Not yet handled
"Gloucester District Court";https://www.mass.gov/locations/gloucester-district-court;"This court serves Essex, Gloucester, and Rockport.";"1 Lowell St., Peabody, MA 01960";"Monday - Friday: \n 8:30 am-4:30 pm";"(978) 283-2620";"Clerk’s Office";true;"(978) 283-1440";"Probation Department";false;N/A;N/A;false;N/A;N/A;false;N/A;N/A;false;N/A;N/A;false;N/A;N/A;false;N/A;N/A;false;N/A;N/A;false;N/A;N/A;false;N/A;N/A;false;"(978) 283-8784";"Clerk’s Office";true;"(978) 283-8743";"Probation Department";false;N/A;N/A;false;N/A;N/A;false;N/A;N/A;false;N/A;N/A;false;"\"Melissa Joy Teixeira\".";None detected;Not yet handled
"Newburyport District Court";https://www.mass.gov/locations/newburyport-district-court;"This court serves Amesbury, Merrimac, Newbury, Newburyport, Rowley, Salisbury, and West Newbury.";"188 State St., Newburyport, MA 01950";"Monday - Friday: \n 8:30 am-4:30 pm";"(978) 462-2652";"Clerk's Office";true;"(978) 465-8373";"Probation Department";false;N/A;N/A;false;N/A;N/A;false;N/A;N/A;false;N/A;N/A;false;N/A;N/A;false;N/A;N/A;false;N/A;N/A;false;N/A;N/A;false;N/A;N/A;false;"(978) 465-6471";"Probation Department";false;N/A;N/A;false;N/A;N/A;false;N/A;N/A;false;N/A;N/A;false;N/A;N/A;false;"\"Ashley Devine\". \"Jurors Only\".";None detected;Not yet handled
"Ipswich District Court";https://www.mass.gov/locations/ipswich-district-court;"The Ipswich District Court sits in Newburyport and serves Ipswich, Hamilton, Wenham, and Topsfield.";"188 State St., Newburyport, MA 01950";"Monday - Friday: \n 8:30 am-4:30 pm";"(978) 462-2652";"Clerk’s Office";true;"(978) 465-8373";"Probation Department";false;N/A;N/A;false;N/A;N/A;false;N/A;N/A;false;N/A;N/A;false;N/A;N/A;false;N/A;N/A;false;N/A;N/A;false;N/A;N/A;false;N/A;N/A;false;"(978) 463-0438";"Clerk’s Office";true;"(978) 462-5642";"Probation Department";false;N/A;N/A;false;N/A;N/A;false;N/A;N/A;false;N/A;N/A;false;"\"Ashley Devine\".";None detected;Not yet handled
"Lawrence District Court";https://www.mass.gov/locations/lawrence-district-court;"This court serves Andover, Lawrence, Methuen, and North Andover.";"2 Appleton St., Lawrence, MA 01840";"Monday - Friday: \n 8:00 am-4:30 pm";"(978) 687-7184";None detected;false;"(978) 685-2636";"TTY";false;"(978) 687-7184";"Clerk’s Office & Probation Department";true;"(978) 687-7184";"Civil Clerk’s Office";true;"(978) 687-7184";"Criminal Clerk’s Office";true;N/A;N/A;false;N/A;N/A;false;N/A;N/A;false;N/A;N/A;false;N/A;N/A;false;N/A;N/A;false;N/A;N/A;false;N/A;N/A;false;N/A;N/A;false;N/A;N/A;false;N/A;N/A;false;N/A;N/A;false;"\"Nicole Ouelette\". \"Jurors Only\".";"\"Fenton Judicial Center\".";Not yet handled
"Lynn District Court";https://www.mass.gov/locations/lynn-district-court;"This court serves Lynn, Marblehead, Nahant, Saugus, and Swampscott.";"580 Essex St., Lynn, MA 01901";"Monday - Friday: \n 8:30 am-4:30 pm";"(781) 598-5200";"Clerk’s Office";true;"(781) 598-6400";"Probation Department";false;"(781) 581-2707";"TTY";false;N/A;N/A;false;N/A;N/A;false;N/A;N/A;false;N/A;N/A;false;N/A;N/A;false;N/A;N/A;false;N/A;N/A;false;N/A;N/A;false;"(781) 598-4350";"Clerk’s Office";true;"(781) 592-5521";"Probation Department";false;N/A;N/A;false;N/A;N/A;false;N/A;N/A;false;N/A;N/A;false;"\"Shawn Melanson\". \"Jurors Only\".";None detected;Not yet handled
"Peabody District Court";https://www.mass.gov/locations/peabody-district-court;"This court serves Lynnfield and Peabody.";"1 Lowell St., Peabody, MA 01960";"Monday - Friday: \n 8:30 am-4:30 pm";"(978) 532-3100";"Clerk’s Office & Probation Department";true;N/A;N/A;false;N/A;N/A;false;N/A;N/A;false;N/A;N/A;false;N/A;N/A;false;N/A;N/A;false;N/A;N/A;false;N/A;N/A;false;N/A;N/A;false;N/A;N/A;false;"(978) 531-8524";"Clerk’s Office";true;"(978) 532-0357";"Probation Department";false;N/A;N/A;false;N/A;N/A;false;N/A;N/A;false;N/A;N/A;false;"\"Rosalind Faretra\". \"Jurors Only\".";None detected;Not yet handled
"Salem District Court";https://www.mass.gov/locations/salem-district-court;"This court serves Beverly, Danvers, Manchester by the Sea, Middleton, and Salem.";"56 Federal St., Salem, MA 01970";"Monday - Friday: \n 8:30 am-4:30 pm";"(978) 744-1167";"Clerk’s Office";true;"(978) 744-2056";"Probation Department";false;N/A;N/A;false;N/A;N/A;false;N/A;N/A;false;N/A;N/A;false;N/A;N/A;false;N/A;N/A;false;N/A;N/A;false;N/A;N/A;false;N/A;N/A;false;N/A;N/A;false;N/A;N/A;false;N/A;N/A;false;N/A;N/A;false;N/A;N/A;false;N/A;N/A;false;"\"Andrew Stahnke\". \"andrew.stahnke@jud.state.ma.us\". \"Jurors Only\".";None detected;Not yet handled
"Northeast Housing Court - Lawrence Session";https://www.mass.gov/locations/northeast-housing-court-lawrence-session;"The Lawrence Session of the Northeast Housing Court serves Amesbury, Andover, Boxford, Georgetown, Groveland, Haverhill, Lawrence, Merrimac, Methuen, Newbury, Newburyport, North Andover, Rowley, Salisbury, and West Newbury.";"2 Appleton St., 2nd Floor, Lawrence, MA 01840";"Monday - Friday: \n 8:30 am-4:30 pm";"(978) 689-7833";"Clerk’s Office & Housing Specialist Department";true;N/A;N/A;false;N/A;N/A;false;N/A;N/A;false;N/A;N/A;false;N/A;N/A;false;N/A;N/A;false;N/A;N/A;false;N/A;N/A;false;N/A;N/A;false;N/A;N/A;false;N/A;N/A;false;N/A;N/A;false;N/A;N/A;false;N/A;N/A;false;N/A;N/A;false;N/A;N/A;false;"\"Cynthia Kappotis\". \"Jurors Only\".";"\"Fenton Judicial Center\".";Not yet handled
"Northeast Housing Court - Salem Session";https://www.mass.gov/locations/northeast-housing-court-salem-session;"The Salem session of the Northeast Housing Court serves Beverly, Danvers, Essex, Gloucester, Hamilton, Ipswich, Lynnfield, Manchester-by-The-Sea, Marblehead, Middleton, Peabody, Rockport, Salem, Swampscott, Topsfield, and Wenham.";"56 Federal St. , Salem, MA 01970";"Monday - Friday: \n 8:30 am-4:30 pm";"(978) 825-4920";"Clerk’s Office & Housing Specialist Department";true;N/A;N/A;false;N/A;N/A;false;N/A;N/A;false;N/A;N/A;false;N/A;N/A;false;N/A;N/A;false;N/A;N/A;false;N/A;N/A;false;N/A;N/A;false;N/A;N/A;false;N/A;N/A;false;N/A;N/A;false;N/A;N/A;false;N/A;N/A;false;N/A;N/A;false;N/A;N/A;false;"\"Cynthia Kappotis\". \"Jurors Only\".";None detected;Not yet handled
"Northeast Housing Court - Lynn Session";https://www.mass.gov/locations/northeast-housing-court-lynn-session;"The Lynn session of the Northeast Housing Court is located in Salem and serves Lynn, Nahant, and Saugus.";"56 Federal St. , Salem, MA 01970";"Monday - Friday: \n 8:30 am-4:30 pm";"(978) 825-4920";"Clerk's Office & Housing Specialist Department";true;N/A;N/A;false;N/A;N/A;false;N/A;N/A;false;N/A;N/A;false;N/A;N/A;false;N/A;N/A;false;N/A;N/A;false;N/A;N/A;false;N/A;N/A;false;N/A;N/A;false;N/A;N/A;false;N/A;N/A;false;N/A;N/A;false;N/A;N/A;false;N/A;N/A;false;N/A;N/A;false;"\"Cynthia Kappotis\".";None detected;Not yet handled
"Salem Juvenile Court";https://www.mass.gov/locations/salem-juvenile-court;"The Essex County Juvenile Court in Salem serves Beverly, Danvers, Lynnfield, Manchester-by-the-Sea, Peabody and Salem.";"56 Federal St., Salem, MA 01970";"Monday - Friday: \n 8:30 am-4:30 pm";"(978) 745-9660 x1";"Clerk's Office";true;"(978) 745-9601 x2";"Probation Department";false;N/A;N/A;false;N/A;N/A;false;N/A;N/A;false;N/A;N/A;false;N/A;N/A;false;N/A;N/A;false;N/A;N/A;false;N/A;N/A;false;N/A;N/A;false;N/A;N/A;false;N/A;N/A;false;N/A;N/A;false;N/A;N/A;false;N/A;N/A;false;N/A;N/A;false;"\"Marina Greeke\". \"Staci Gergley\". \"Jurors Only\".";None detected;Not yet handled
"Lawrence Juvenile Court";https://www.mass.gov/locations/lawrence-juvenile-court;"The Essex County Juvenile Court in Lawrence serves Andover, Boxford, Bradford, Georgetown, Groveland, Haverhill, Lawrence, Methuen, and North Andover.";"2 Appleton Street, Lawrence, MA 01840";"Monday - Friday: \n 8:30 am-4:30 pm";"(978) 725-4900 x2";"Clerk's Office";true;"(978) 725-3875 x3";"Probation Department";false;N/A;N/A;false;N/A;N/A;false;N/A;N/A;false;N/A;N/A;false;N/A;N/A;false;N/A;N/A;false;N/A;N/A;false;N/A;N/A;false;N/A;N/A;false;N/A;N/A;false;N/A;N/A;false;N/A;N/A;false;N/A;N/A;false;N/A;N/A;false;N/A;N/A;false;"\"Marina Greeke\".";"\"Fenton Judicial Center\".";Not yet handled
"Lynn Juvenile Court";https://www.mass.gov/locations/lynn-juvenile-court;"The Essex County Juvenile Court in Lynn serves Lynn, Marblehead, Nahant, Saugus, and Swampscott.";"139 Central Ave., Lynn, MA 01901";"Monday - Friday: \n 8:30 am-4:30 pm";"(781) 586-0415 x4";"Clerk's Office";true;"(781) 586-0695 x5";"Probation Department";false;N/A;N/A;false;N/A;N/A;false;N/A;N/A;false;N/A;N/A;false;N/A;N/A;false;N/A;N/A;false;N/A;N/A;false;N/A;N/A;false;N/A;N/A;false;N/A;N/A;false;N/A;N/A;false;N/A;N/A;false;N/A;N/A;false;N/A;N/A;false;N/A;N/A;false;"\"Marina Greeke\". \"Jurors Only\".";None detected;Not yet handled
"Newburyport Juvenile Court";https://www.mass.gov/locations/newburyport-juvenile-court;"The Essex County Juvenile Court in Newburyport serves Amesbury, Essex, Hamilton, Ipswich, Merrimac, Newbury, Newburyport, Rowley, Salisbury, Topsfield, Wenham, and West Newbury.\n\nThe mailing address for this court is:\n\n188 State St., Route 1, Traffic Circle, Newburyport, MA 01950";"188 State St. , Newburyport, MA 01950";"Monday - Friday: \n 8:30 am-4:30 pm";"(978) 462-0617 x5";"Clerk's Office";true;"(978) 462-0617 x5";"Probation Department";false;N/A;N/A;false;N/A;N/A;false;N/A;N/A;false;N/A;N/A;false;N/A;N/A;false;N/A;N/A;false;N/A;N/A;false;N/A;N/A;false;N/A;N/A;false;N/A;N/A;false;N/A;N/A;false;N/A;N/A;false;N/A;N/A;false;N/A;N/A;false;N/A;N/A;false;"\"Marina Greeke\". \"Jane Pagley-Stanwood\".";None detected;Not yet handled
"Essex Probate and Family Court";https://www.mass.gov/locations/essex-probate-and-family-court;"This court serves all cities and towns in Essex County.";"36 Federal St., Salem, MA 01970";"Monday - Friday: \n 8:00 am-4:30 pm";"(978) 744-1020";None detected;false;"(978) 745-0350";"TTY";false;N/A;N/A;false;N/A;N/A;false;N/A;N/A;false;N/A;N/A;false;N/A;N/A;false;N/A;N/A;false;N/A;N/A;false;N/A;N/A;false;N/A;N/A;false;N/A;N/A;false;N/A;N/A;false;N/A;N/A;false;N/A;N/A;false;N/A;N/A;false;N/A;N/A;false;"\"Maritza Mercedes\". \"Tara Kiley\".";None detected;Not yet handled
"Lawrence Probate and Family Court";https://www.mass.gov/locations/lawrence-probate-and-family-court;"The Essex Probate and Family Court in Lawrence serves all cities and towns of Essex County.";"2 Appleton St., Lawrence, MA 01840";"Please note that the Registry is closed from 1:00 - 2:00 daily";"(978) 686-9692";"Register’s Office";false;"(978) 744-1020";"Probation Department";false;"(978) 975-2429";"TTY";false;N/A;N/A;false;N/A;N/A;false;N/A;N/A;false;N/A;N/A;false;N/A;N/A;false;N/A;N/A;false;N/A;N/A;false;N/A;N/A;false;"(978) 687-3694";"Register's Office";false;"(978) 741-5732";"Probation Department";false;N/A;N/A;false;N/A;N/A;false;N/A;N/A;false;N/A;N/A;false;"\"Maritza Mercedes\". \"Zona Sharfman\".";None detected;Not yet handled
"Essex County Superior Court";https://www.mass.gov/locations/essex-county-superior-court;"This court serves all cities and towns of Essex County.";"56 Federal St., Salem, MA 01970";"Monday - Friday: \n 8:00 am-4:30 pm";"(978) 744-5500";"Clerk's Office";true;"(978) 825-4880";"Probation Department";false;"(978) 744-5880";"TTY";false;N/A;N/A;false;N/A;N/A;false;N/A;N/A;false;N/A;N/A;false;N/A;N/A;false;N/A;N/A;false;N/A;N/A;false;N/A;N/A;false;"(978) 741-0691";"Clerk's Office";true;"(978) 741-4368";"Probation Department";false;N/A;N/A;false;N/A;N/A;false;N/A;N/A;false;N/A;N/A;false;"\"Rebecca Matuza\". \"Maria Dres\". \"Lisa Gomes\". \"Jurors Only\".";None detected;Not yet handled
"Essex County Superior Court - Lawrence";https://www.mass.gov/locations/essex-county-superior-court-lawrence;"This court serves all the cities and towns of Essex County.";"43 Appleton Way, Lawrence, MA 01841";"Monday - Friday: \n 8:00 am-4:30 pm";"(978) 242-1900";"Clerk's Office";true;"(978) 242-1905";"Probation Department";false;N/A;N/A;false;N/A;N/A;false;N/A;N/A;false;N/A;N/A;false;N/A;N/A;false;N/A;N/A;false;N/A;N/A;false;N/A;N/A;false;N/A;N/A;false;"(978) 687-7869";"Clerk's Office";true;"(978) 682-0474";"Probation Department";false;N/A;N/A;false;N/A;N/A;false;N/A;N/A;false;N/A;N/A;false;"\"Stefano J. Cornelio, Esq.\". \"Sarah Anderson\". \"Jurors Only\".";None detected;Not yet handled
"Essex County Superior Court - Newburyport";https://www.mass.gov/locations/essex-county-superior-court-newburyport;"This court serves all the towns of Essex County.";"145 High St., Newburyport, MA 01950";"Monday - Friday: \n 8:00 am-4:00 pm";"(978) 462-4474";"Clerk's Office";true;"(978) 462-4474";"Probation Department";false;N/A;N/A;false;N/A;N/A;false;N/A;N/A;false;N/A;N/A;false;N/A;N/A;false;N/A;N/A;false;N/A;N/A;false;N/A;N/A;false;N/A;N/A;false;"(978) 462-0432";"Clerk's Office";true;N/A;N/A;false;N/A;N/A;false;N/A;N/A;false;N/A;N/A;false;N/A;N/A;false;"\"Anne Mitchell\". \"Jaimie Essigmann\". \"Jurors Only\".";None detected;Not yet handled
"Greenfield District Court";https://www.mass.gov/locations/greenfield-district-court;"This court serves Ashfield, Bernardston, Buckland, Charlemont, Colrain, Conway, Deerfield, Gill, Greenfield, Hawley, Heath, Leyden, Monroe, Montague, Northfield, Rowe, Shelburne, Sunderland, and Whately.";"43 Hope St., Greenfield, MA 01301";"Monday - Friday: \n 8:30 am-4:30 pm";"(413) 774-5533";"Clerk’s Office";true;"(413) 774-5531";"Probation Department";false;N/A;N/A;false;N/A;N/A;false;N/A;N/A;false;N/A;N/A;false;N/A;N/A;false;N/A;N/A;false;N/A;N/A;false;N/A;N/A;false;N/A;N/A;false;"(413) 774-5328";"Clerk’s Office";true;"(413) 774-2258";"Probation Department";false;N/A;N/A;false;N/A;N/A;false;N/A;N/A;false;N/A;N/A;false;"\"Robin Massa\". \"Jurors Only\".";None detected;Not yet handled
"Orange District Court";https://www.mass.gov/locations/orange-district-court;"This court serves Athol, Erving, Leverett, New Salem, Orange, Shutesbury, Warwick, and Wendell.";"1 Court Square, Orange, MA 01364";"Monday - Friday: \n 8:30 am-4:30 pm";"(978) 544-8277";"Clerk’s Office";true;"(978) 544-8281";"Probation Department";false;"(978) 544-2804";"TTY";false;N/A;N/A;false;N/A;N/A;false;N/A;N/A;false;N/A;N/A;false;N/A;N/A;false;N/A;N/A;false;N/A;N/A;false;N/A;N/A;false;"(978) 544-5204";"Clerk’s Office";true;"(978) 544-0927";"Probation Department";false;N/A;N/A;false;N/A;N/A;false;N/A;N/A;false;N/A;N/A;false;"\"Jurors Only\".";None detected;Not yet handled
"Western Housing Court - Greenfield Session";https://www.mass.gov/locations/western-housing-court-greenfield-session;"The Western Housing Court in Greenfield serves Ashfield, Bernardston, Buckland, Charlemont, Colrain, Conway, Deerfield, Erving, Gill, Greenfield, Hawley, Heath, Leverett, Leyden, Monroe, Montague, New Salem, Northfield, Orange, Rowe, Shelburne, Shutesbury, Sunderland, Warwick, Wendell and Whately.";"43 Hope St., Greenfield, MA 01301";"This location is open only when court is in session Friday morning.";"(413) 748-7838";"Clerk's Office and Housing Specialist Department";true;N/A;N/A;false;N/A;N/A;false;N/A;N/A;false;N/A;N/A;false;N/A;N/A;false;N/A;N/A;false;N/A;N/A;false;N/A;N/A;false;N/A;N/A;false;N/A;N/A;false;"(413) 732-4607";"Clerk's Office and Housing Specialist Department";true;N/A;N/A;false;N/A;N/A;false;N/A;N/A;false;N/A;N/A;false;N/A;N/A;false;"\"Elizabeth Cruz\".";None detected;Not yet handled
"Greenfield Juvenile Court";https://www.mass.gov/locations/greenfield-juvenile-court;"The Franklin-Hampshire Counties Juvenile Court in Greenfield serves Ashfield, Bernardston, Buckland, Charlemont, Colrain, Conway, Deerfield, Gill, Greenfield, Hawley, Heath, Leyden, Monroe, Montague, Northfield, Rowe, Shelburne, Sunderland and Whately.\n\nHampshire County Juvenile Court jury cases are held at the Northampton District Court.  Jury cases in Franklin County (including Athol which is in Worcester County) are held at the Greenfield Juvenile Court.";"43 Hope St., Greenfield, MA 01302";"Add hours info here";"(413) 775-0014";"Clerk's Office & Probation Department";true;N/A;N/A;false;N/A;N/A;false;N/A;N/A;false;N/A;N/A;false;N/A;N/A;false;N/A;N/A;false;N/A;N/A;false;N/A;N/A;false;N/A;N/A;false;N/A;N/A;false;"(413) 775-9201";"Probation Department";false;N/A;N/A;false;N/A;N/A;false;N/A;N/A;false;N/A;N/A;false;N/A;N/A;false;"\"Carrie Mayer\". \"Jurors Only\".";None detected;Not yet handled
"Orange Juvenile Court";https://www.mass.gov/locations/orange-juvenile-court;"The Franklin-Hampshire Counties Juvenile Court in Orange serves Athol, Erving, Leverett, New Salem, Orange, Shutesbury, Warwick and Wendell.\nHampshire County Juvenile Court jury cases are held at the Northampton District Court.  Jury cases in Franklin County (including Athol which is in Worcester County) are held at the Greenfield Juvenile Court.)";"1 Court Square, Orange, MA 01364";"Hours vary";"(978) 544-5125";"Clerk's Office";true;"(978) 544-5125";"Probation Department";false;N/A;N/A;false;N/A;N/A;false;N/A;N/A;false;N/A;N/A;false;N/A;N/A;false;N/A;N/A;false;N/A;N/A;false;N/A;N/A;false;N/A;N/A;false;N/A;N/A;false;N/A;N/A;false;N/A;N/A;false;N/A;N/A;false;N/A;N/A;false;N/A;N/A;false;"\"Carrie Mayer\".";None detected;Not yet handled
"Belchertown Juvenile Court";https://www.mass.gov/locations/belchertown-juvenile-court;"The Franklin-Hampshire Counties Juvenile Court in Belchertown serves Belchertown, Granby and Ware.";"205 State St., Belchertown, MA 01007";"Hours vary";"(413) 323-4056";"Clerk's Office";true;"(413) 323-4056";"Probation Department";false;N/A;N/A;false;N/A;N/A;false;N/A;N/A;false;N/A;N/A;false;N/A;N/A;false;N/A;N/A;false;N/A;N/A;false;N/A;N/A;false;N/A;N/A;false;N/A;N/A;false;N/A;N/A;false;N/A;N/A;false;N/A;N/A;false;N/A;N/A;false;N/A;N/A;false;"\"Carrie Mayer\".";None detected;Not yet handled
"Hadley Juvenile Court";https://www.mass.gov/locations/hadley-juvenile-court;"This court serves Amherst, Chesterfield, Cummington, Easthampton, Goshen, Hadley, Hatfield, Huntington, Middlefield, Northampton, Pelham, Plainfield, Southampton, South Hadley, Westhampton, Williamsburg and Worthington.";"116 Russell St., Route 9, Hadley, MA 01035";"Hours vary";"(413) 584-7686";"Clerk's Office";true;"(413) 584-7686";"Probation Department";false;"(413) 587-3056";"TTY";false;N/A;N/A;false;N/A;N/A;false;N/A;N/A;false;N/A;N/A;false;N/A;N/A;false;N/A;N/A;false;N/A;N/A;false;N/A;N/A;false;"(413) 587-0191";"Probation Department";false;N/A;N/A;false;N/A;N/A;false;N/A;N/A;false;N/A;N/A;false;N/A;N/A;false;"\"Carrie Mayer\".";None detected;Not yet handled
"Franklin Probate and Family Court";https://www.mass.gov/locations/franklin-probate-and-family-court;"This court serves all cities and towns in Franklin County.\n\nThe mailing address for this court is:\n\n43 Hope St., P.O. Box 590, Greenfield, MA 01302";"43 Hope St., Greenfield, MA 01302";"Monday - Friday: \n 8:00 am-4:30 pm";"(413) 774-7011";"Register's Office";false;"(413) 774-2229";"Probation Department";false;"(413) 774-3364";"TTY";false;N/A;N/A;false;N/A;N/A;false;N/A;N/A;false;N/A;N/A;false;N/A;N/A;false;N/A;N/A;false;N/A;N/A;false;N/A;N/A;false;"(413) 774-3829";None detected;false;N/A;N/A;false;N/A;N/A;false;N/A;N/A;false;N/A;N/A;false;N/A;N/A;false;"\"Sherry Chaffee\".";None detected;Not yet handled
"Franklin County Superior Court";https://www.mass.gov/locations/franklin-county-superior-court;"This court serves all the cities and towns of Franklin County.";"43 Hope St., Greenfield, MA 01301";"Monday - Friday: \n 8:30 am-4:30 pm";"(413) 775-7400";"Clerk's Office";true;"(413) 773-7249";"Probation Department";false;N/A;N/A;false;N/A;N/A;false;N/A;N/A;false;N/A;N/A;false;N/A;N/A;false;N/A;N/A;false;N/A;N/A;false;N/A;N/A;false;N/A;N/A;false;"(413) 774-4770";"Clerk's Office";true;"(413) 774-3283";"Probation Department";false;N/A;N/A;false;N/A;N/A;false;N/A;N/A;false;N/A;N/A;false;"\"Amanda LeBlanc\". \"Heather Barton\". \"Jurors Only\".";None detected;Not yet handled
"Chicopee District Court";https://www.mass.gov/locations/chicopee-district-court;"This court serves Chicopee.";"30 Church St., Chicopee, MA 01020";"Monday - Friday: \n 8:30 am-4:30 pm";"(413) 598-0099";"Clerk's Office";true;"(413) 594-5921";"Probation Department";false;N/A;N/A;false;N/A;N/A;false;N/A;N/A;false;N/A;N/A;false;N/A;N/A;false;N/A;N/A;false;N/A;N/A;false;N/A;N/A;false;N/A;N/A;false;"(413) 594-6187";"Clerk's Office";true;"(413) 598-8176";"Probation Department";false;N/A;N/A;false;N/A;N/A;false;N/A;N/A;false;N/A;N/A;false;"\"Carol DiBernardo\". \"Barbara Burton\".";None detected;Not yet handled
"Holyoke District Court";https://www.mass.gov/locations/holyoke-district-court;"This court serves Holyoke.";"20 Court Plaza, Holyoke, MA 01040";"Monday - Friday: \n 8:30 am-4:30 pm";"(413) 538-9710";"Clerk’s Office";true;"(413) 598-9712";"Probation Department";false;N/A;N/A;false;N/A;N/A;false;N/A;N/A;false;N/A;N/A;false;N/A;N/A;false;N/A;N/A;false;N/A;N/A;false;N/A;N/A;false;N/A;N/A;false;"(413) 533-7165";"Clerk’s Office";true;"(413) 535-2152";"Probation Department";false;N/A;N/A;false;N/A;N/A;false;N/A;N/A;false;N/A;N/A;false;"\"Azizah Yasin\". \"Jurors Only\".";None detected;Not yet handled
"Palmer District Court";https://www.mass.gov/locations/palmer-district-court;"This court serves Brimfield, East Longmeadow, Hampden, Holland, Ludlow, Monson, Palmer, Wales, and Wilbraham.";"235 Sykes St., Suite 3, Palmer, MA 01069";"Monday - Friday: \n 8:30 am-4:30 pm";"(413) 283-8916";"Clerk’s Office";true;"(413) 283-5021";"Probation Department";false;N/A;N/A;false;N/A;N/A;false;N/A;N/A;false;N/A;N/A;false;N/A;N/A;false;N/A;N/A;false;N/A;N/A;false;N/A;N/A;false;N/A;N/A;false;"(413) 283-6775";"Clerk’s Office";true;"(413) 283-6177";"Probation Department";false;N/A;N/A;false;N/A;N/A;false;N/A;N/A;false;N/A;N/A;false;"\"Courtney Mattingly\".";None detected;Not yet handled
"Springfield District Court";https://www.mass.gov/locations/springfield-district-court;"This court serves Longmeadow, Springfield, and West Springfield. The courthouse is officially named the Roderick J. Ireland Courthouse. \n\nThe mailing address for this court is:\n\n50 State St., P.O. Box 2421, Springfield, MA 01102";"50 State St., Springfield, MA 01102";"Monday - Friday: \n 8:30 am-4:30 pm";"(413) 748-8600";"Clerk’s Office & Probation Department";true;"(413) 827-9315";"TTY";false;N/A;N/A;false;N/A;N/A;false;N/A;N/A;false;N/A;N/A;false;N/A;N/A;false;N/A;N/A;false;N/A;N/A;false;N/A;N/A;false;N/A;N/A;false;N/A;N/A;false;N/A;N/A;false;N/A;N/A;false;N/A;N/A;false;N/A;N/A;false;N/A;N/A;false;"\"Susanne Moultrie\".";None detected;Not yet handled
"Westfield District Court";https://www.mass.gov/locations/westfield-district-court;"This court serves Agawam, Blandford, Chester, Granville, Montgomery, Russell, Southwick, Tolland and Westfield.";"224 Elm Street, Westfield, MA 01085";"Monday - Friday: \n 8:30 am-4:30 pm";"(413) 568-8946";"Clerk's Office";true;"(413) 568-6451";"Probation Department";false;N/A;N/A;false;N/A;N/A;false;N/A;N/A;false;N/A;N/A;false;N/A;N/A;false;N/A;N/A;false;N/A;N/A;false;N/A;N/A;false;N/A;N/A;false;"(413) 568-4863";"Clerk's Office";true;"(413) 562-0641";"Probation Department";false;N/A;N/A;false;N/A;N/A;false;N/A;N/A;false;N/A;N/A;false;"\"Robbin Conde\". \"Jurors Only\".";None detected;Not yet handled
"Western Housing Court - Springfield Session";https://www.mass.gov/locations/western-housing-court-springfield-session;"The Western Housing Court in Springfield serves Agawam, Blandford, Brimfield, Chester, Chicopee, East Longmeadow, Granville, Hampden, Holland, Holyoke, Longmeadow, Ludlow, Monson, Montgomery, Palmer, Russell, Southwick, Springfield, Tolland, Wales, West Springfield, Westfield, and Wilbraham.";"37 Elm Street, Springfield, MA 01102";"Monday - Friday: \n 8:30 am-4:30 pm";"(413) 748-7838";"Clerk's Office";true;"(413) 735-6070";"TTY";false;"(413) 748-7838";"Housing Specialist Department";false;N/A;N/A;false;N/A;N/A;false;N/A;N/A;false;N/A;N/A;false;N/A;N/A;false;N/A;N/A;false;N/A;N/A;false;N/A;N/A;false;"(413) 732-4607";"Clerk's Office and Housing Specialist Department";true;N/A;N/A;false;N/A;N/A;false;N/A;N/A;false;N/A;N/A;false;N/A;N/A;false;"\"Elizabeth Cruz\". \"Jurors Only\".";"\"Mailing address\".";Not yet handled
"Springfield Juvenile Court";https://www.mass.gov/locations/springfield-juvenile-court;"The Hampden County Juvenile Court in Springfield serves Agawam, Chicopee, Longmeadow, Springfield, and West Springfield.";"80 State Street, Springfield, MA 01103";"Monday - Friday: \n 8:30 am-4:30 pm";"(413) 748-7860";"Clerk's Office";true;"(413) 748-7672";"Probation Department";false;"(413) 775-9321";"TTY";false;N/A;N/A;false;N/A;N/A;false;N/A;N/A;false;N/A;N/A;false;N/A;N/A;false;N/A;N/A;false;N/A;N/A;false;N/A;N/A;false;N/A;N/A;false;N/A;N/A;false;N/A;N/A;false;N/A;N/A;false;N/A;N/A;false;N/A;N/A;false;"\"Joyce Jerard\". \"Sandra Walaszek\". \"Jurors Only\".";None detected;Not yet handled
"Holyoke Juvenile Court";https://www.mass.gov/locations/holyoke-juvenile-court;"The Hampden County Juvenile Court in Holyoke serves Blandford, Chester, Granville, Holyoke, Montgomery, Russell, Southwick, Tolland, and Westfield.";"121 Elm Street, Holyoke, MA 01040";"Monday - Friday: \n 8:30 am-4:30 pm";"(413) 322-6700";"Clerk's Office and Probation Department";true;N/A;N/A;false;N/A;N/A;false;N/A;N/A;false;N/A;N/A;false;N/A;N/A;false;N/A;N/A;false;N/A;N/A;false;N/A;N/A;false;N/A;N/A;false;N/A;N/A;false;N/A;N/A;false;N/A;N/A;false;N/A;N/A;false;N/A;N/A;false;N/A;N/A;false;N/A;N/A;false;"\"Joyce Jerard\". \"Sandra Walaszek\".";None detected;Not yet handled
"Palmer Juvenile Court";https://www.mass.gov/locations/palmer-juvenile-court;"The Hampden County Juvenile Court in Palmer serves Brimfield, East Longmeadow, Hampden, Holland, Ludlow, Monson, Palmer, Wales, and Wilbraham.";"235 Sykes Street, Suite 3, Palmer, MA 01069";"Monday - Friday: \n 8:30 am-4:30 pm";"(413) 283-1057";"Clerk's Office and Probation Department";true;N/A;N/A;false;N/A;N/A;false;N/A;N/A;false;N/A;N/A;false;N/A;N/A;false;N/A;N/A;false;N/A;N/A;false;N/A;N/A;false;N/A;N/A;false;N/A;N/A;false;N/A;N/A;false;N/A;N/A;false;N/A;N/A;false;N/A;N/A;false;N/A;N/A;false;N/A;N/A;false;"\"Joyce Jerard\". \"Sandra Walaszek\".";None detected;Not yet handled
"Hampden Probate and Family Court";https://www.mass.gov/locations/hampden-probate-and-family-court;"This court serves the cities and towns of Hampden County.\n\nThe mailing address for this court is:\n\n50 State St., P.O. Box 559, Springfield, MA 01102";"50 State St., Springfield, MA 01102";"Main Office \n Monday - Friday: \n 8:00 am-4:00 pm\n \n\n\n Satellite Office \n Monday - Friday: \n 9:00 am-5:00 pm";"(413) 748-7760";"Register’s Office";false;"(413) 748-7797";"Probation Department";false;N/A;N/A;false;N/A;N/A;false;N/A;N/A;false;N/A;N/A;false;N/A;N/A;false;N/A;N/A;false;N/A;N/A;false;N/A;N/A;false;N/A;N/A;false;"(413) 781-5605";"Register’s Office";false;"(413) 748-8615";"Probation Department";false;N/A;N/A;false;N/A;N/A;false;N/A;N/A;false;N/A;N/A;false;"\"Olivia Strohman\". \"Thomas LeBlanc\".";"\"Satellite Office\".";Not yet handled
"Hampden County Superior Court";https://www.mass.gov/locations/hampden-county-superior-court;"This court serves all cities and towns of Hampden County.\n\nThe mailing address for this court is:\n\n50 State St., P.O. Box 559, Springfield, MA 01102";"50 State St., Springfield, MA 01102";"Monday - Friday: \n 8:30 am-4:30 pm";"(413) 735-6016";"Clerk’s Office";true;"(413) 748-7653";"Probation Department";false;"(413) 735-6017";"Criminal Business";false;"(413) 827-9379";"TTY";false;N/A;N/A;false;N/A;N/A;false;N/A;N/A;false;N/A;N/A;false;N/A;N/A;false;N/A;N/A;false;N/A;N/A;false;"(413) 737-1611";"Clerk’s Office";true;"(413) 732-8637";"Probation Department";false;N/A;N/A;false;N/A;N/A;false;N/A;N/A;false;N/A;N/A;false;"\"ADA Coordinator TBD\". \"Jurors Only\".";None detected;Not yet handled
"Eastern Hampshire District Court";https://www.mass.gov/locations/eastern-hampshire-district-court;"This court serves Amherst, Belchertown, Granby, Hadley, Pelham, South Hadley, Ware , M.D.C. Quabbin Reservoir, and the Watershed Area.";"205 State St., Route 202, Belchertown, MA 01007";"Monday - Friday: \n 8:30 am-4:30 pm";"(413) 213-7610";"Clerk's Office & Probation Department";true;"(413) 213-7666";"Civil & Criminal Departments";false;N/A;N/A;false;N/A;N/A;false;N/A;N/A;false;N/A;N/A;false;N/A;N/A;false;N/A;N/A;false;N/A;N/A;false;N/A;N/A;false;N/A;N/A;false;"(413) 323-6803";"Clerk's Office";true;N/A;N/A;false;N/A;N/A;false;N/A;N/A;false;N/A;N/A;false;N/A;N/A;false;"\"Randall Smith\". \"Robin Balicki\". \"Jurors Only\".";"\"Physical address\". \"Mailing address\".";Not yet handled
"Northampton District Court";https://www.mass.gov/locations/northampton-district-court;"This court serves Chesterfield, Cummington, Easthampton, Goshen, Hatfield, Huntington, Middlefield, Northampton, Plainfield, Southampton, Westhampton, Williamsburg, and Worthington.";"15 Gothic St., Northampton, MA 01060";"Monday - Friday: \n 8:30 am-4:30 pm";"(413) 584-7400";"Clerk’s Office & Probation Department";true;N/A;N/A;false;N/A;N/A;false;N/A;N/A;false;N/A;N/A;false;N/A;N/A;false;N/A;N/A;false;N/A;N/A;false;N/A;N/A;false;N/A;N/A;false;N/A;N/A;false;"(413) 586-1980";"Clerk's Office, Criminal matters";true;"(413) 584-9479";"Clerk's Office, Civil matters";true;"(413) 584-7547";"Probation Department";false;N/A;N/A;false;N/A;N/A;false;N/A;N/A;false;"\"Maria Aguasanta\". \"Donna Holmes\". \"Jurors Only\".";None detected;Not yet handled
"Western Housing Court - Hadley Session";https://www.mass.gov/locations/western-housing-court-hadley-session;"The Hadley session of the Western Housing Court serves Amherst, Belchertown, Chesterfield, Cummington, Easthampton, Goshen, Granby, Hadley, Hatfield, Huntington, Middlefield, Northampton, Pelham, Plainfield, South Hadley, Southampton, Ware, Westhampton, Williamsburg and Worthington.";"116 Russell St., Hadley, MA 01035";"This location is open only when court is in session Monday morning.";"(413) 748-7838";"Clerk's Office and Housing Specialist Department";true;N/A;N/A;false;N/A;N/A;false;N/A;N/A;false;N/A;N/A;false;N/A;N/A;false;N/A;N/A;false;N/A;N/A;false;N/A;N/A;false;N/A;N/A;false;N/A;N/A;false;"(413) 732-4607";"Clerk's Office and Housing Specialist Department";true;N/A;N/A;false;N/A;N/A;false;N/A;N/A;false;N/A;N/A;false;N/A;N/A;false;"\"Elizabeth Cruz\".";None detected;Not yet handled
"Greenfield Juvenile Court";https://www.mass.gov/locations/greenfield-juvenile-court;"The Franklin-Hampshire Counties Juvenile Court in Greenfield serves Ashfield, Bernardston, Buckland, Charlemont, Colrain, Conway, Deerfield, Gill, Greenfield, Hawley, Heath, Leyden, Monroe, Montague, Northfield, Rowe, Shelburne, Sunderland and Whately.\n\nHampshire County Juvenile Court jury cases are held at the Northampton District Court.  Jury cases in Franklin County (including Athol which is in Worcester County) are held at the Greenfield Juvenile Court.";"43 Hope St., Greenfield, MA 01302";"Add hours info here";"(413) 775-0014";"Clerk's Office & Probation Department";true;N/A;N/A;false;N/A;N/A;false;N/A;N/A;false;N/A;N/A;false;N/A;N/A;false;N/A;N/A;false;N/A;N/A;false;N/A;N/A;false;N/A;N/A;false;N/A;N/A;false;"(413) 775-9201";"Probation Department";false;N/A;N/A;false;N/A;N/A;false;N/A;N/A;false;N/A;N/A;false;N/A;N/A;false;"\"Carrie Mayer\". \"Jurors Only\".";None detected;Not yet handled
"Orange Juvenile Court";https://www.mass.gov/locations/orange-juvenile-court;"The Franklin-Hampshire Counties Juvenile Court in Orange serves Athol, Erving, Leverett, New Salem, Orange, Shutesbury, Warwick and Wendell.\nHampshire County Juvenile Court jury cases are held at the Northampton District Court.  Jury cases in Franklin County (including Athol which is in Worcester County) are held at the Greenfield Juvenile Court.)";"1 Court Square, Orange, MA 01364";"Hours vary";"(978) 544-5125";"Clerk's Office";true;"(978) 544-5125";"Probation Department";false;N/A;N/A;false;N/A;N/A;false;N/A;N/A;false;N/A;N/A;false;N/A;N/A;false;N/A;N/A;false;N/A;N/A;false;N/A;N/A;false;N/A;N/A;false;N/A;N/A;false;N/A;N/A;false;N/A;N/A;false;N/A;N/A;false;N/A;N/A;false;N/A;N/A;false;"\"Carrie Mayer\".";None detected;Not yet handled
"Belchertown Juvenile Court";https://www.mass.gov/locations/belchertown-juvenile-court;"The Franklin-Hampshire Counties Juvenile Court in Belchertown serves Belchertown, Granby and Ware.";"205 State St., Belchertown, MA 01007";"Hours vary";"(413) 323-4056";"Clerk's Office";true;"(413) 323-4056";"Probation Department";false;N/A;N/A;false;N/A;N/A;false;N/A;N/A;false;N/A;N/A;false;N/A;N/A;false;N/A;N/A;false;N/A;N/A;false;N/A;N/A;false;N/A;N/A;false;N/A;N/A;false;N/A;N/A;false;N/A;N/A;false;N/A;N/A;false;N/A;N/A;false;N/A;N/A;false;"\"Carrie Mayer\".";None detected;Not yet handled
"Hadley Juvenile Court";https://www.mass.gov/locations/hadley-juvenile-court;"This court serves Amherst, Chesterfield, Cummington, Easthampton, Goshen, Hadley, Hatfield, Huntington, Middlefield, Northampton, Pelham, Plainfield, Southampton, South Hadley, Westhampton, Williamsburg and Worthington.";"116 Russell St., Route 9, Hadley, MA 01035";"Hours vary";"(413) 584-7686";"Clerk's Office";true;"(413) 584-7686";"Probation Department";false;"(413) 587-3056";"TTY";false;N/A;N/A;false;N/A;N/A;false;N/A;N/A;false;N/A;N/A;false;N/A;N/A;false;N/A;N/A;false;N/A;N/A;false;N/A;N/A;false;"(413) 587-0191";"Probation Department";false;N/A;N/A;false;N/A;N/A;false;N/A;N/A;false;N/A;N/A;false;N/A;N/A;false;"\"Carrie Mayer\".";None detected;Not yet handled
"Hampshire Probate and Family Court";https://www.mass.gov/locations/hampshire-probate-and-family-court;"This court serves all the cities and towns in Hampshire County.";"15 Atwood Dr., Northampton, MA 01060";"Main Office \n Monday: \n 8:30 am-4:30 pm\n \n\n Tuesday - Friday: \n 8:00 am-4:30 pm\n \n\n\n Satellite Office First and third Thursday of every month, 9:00 am-1:00 pm";"(413) 586-8500";"Register’s Office";false;"(413) 586-8503";"Probation Department";false;N/A;N/A;false;N/A;N/A;false;N/A;N/A;false;N/A;N/A;false;N/A;N/A;false;N/A;N/A;false;N/A;N/A;false;N/A;N/A;false;N/A;N/A;false;"(413) 584-1132";"Register’s Office";false;"(413) 586-5670";"Probation Department";false;N/A;N/A;false;N/A;N/A;false;N/A;N/A;false;N/A;N/A;false;"\"Mark Ames\".";"\"Satellite Office (see hours below)\".";Not yet handled
"Hampshire County Superior Court";https://www.mass.gov/locations/hampshire-county-superior-court;"This court serves all cities and towns of Hampshire County.\n\nThe mailing address for this court is:\n\n15 Gothic St., P.O. Box 1119, Northampton, MA 01061";"15 Gothic St., Northampton, MA 01061";"Monday - Friday: \n 8:30 am-4:30 pm";"(413) 584-5810";"Clerk’s Office";true;"(413) 584-7400";"Probation Department";false;N/A;N/A;false;N/A;N/A;false;N/A;N/A;false;N/A;N/A;false;N/A;N/A;false;N/A;N/A;false;N/A;N/A;false;N/A;N/A;false;N/A;N/A;false;"(413) 586-8217";"Clerk’s Office";true;N/A;N/A;false;N/A;N/A;false;N/A;N/A;false;N/A;N/A;false;N/A;N/A;false;"\"Kaitlyn Lefebvre\". \"Patricia Shepard\". \"Jurors Only\".";None detected;Not yet handled
"Ayer District Court";https://www.mass.gov/locations/ayer-district-court;"The Ayer District Court serves Ashby, Ayer, Boxborough, Dunstable, Groton, Littleton, Pepperell, Shirley, Townsend, Westford, and Devens Regional Enterprise Zone.";"25 East Main St., Ayer, MA 01432";"Monday - Friday: \n 8:30 am-4:30 pm";"(978) 772-2100";"Clerk's Office & Probation Department";true;"(978) 772-9213";"TTY";false;N/A;N/A;false;N/A;N/A;false;N/A;N/A;false;N/A;N/A;false;N/A;N/A;false;N/A;N/A;false;N/A;N/A;false;N/A;N/A;false;N/A;N/A;false;"(978) 772-5345";"Clerk's Office";true;"(978) 772-9021";"Probation Department";false;N/A;N/A;false;N/A;N/A;false;N/A;N/A;false;N/A;N/A;false;"\"Tina Ramos\". \"Jurors only\".";None detected;Not yet handled
"Cambridge District Court";https://www.mass.gov/locations/cambridge-district-court;"The Cambridge District Court, also known as Third District Court, serves Cambridge, Arlington, and Belmont.";"4040 Mystic Valley Parkway, Medford, MA 02155";"Monday - Friday: \n 8:30 am-4:30 pm";"(781) 306-2715";"Clerk's Office";true;"(781) 306-2750";"Probation Department";false;"(781) 306-2746";"TTY";false;N/A;N/A;false;N/A;N/A;false;N/A;N/A;false;N/A;N/A;false;N/A;N/A;false;N/A;N/A;false;N/A;N/A;false;N/A;N/A;false;"(781) 395-2035";"Clerk's Office";true;"(781) 395-2147";"Probation Department";false;N/A;N/A;false;N/A;N/A;false;N/A;N/A;false;N/A;N/A;false;"\"Daniel Tabares\". \"Jurors Only\".";None detected;Not yet handled
"Concord District Court";https://www.mass.gov/locations/concord-district-court;"This court serves Concord, Carlisle, Lincoln, Lexington, Bedford, Acton, Maynard, and Stow.";"305 Walden St., Concord, MA 01742";"Monday - Friday: \n 8:30 am-4:30 pm";"(978) 369-0500";"Clerk's Office & Probation Department";true;N/A;N/A;false;N/A;N/A;false;N/A;N/A;false;N/A;N/A;false;N/A;N/A;false;N/A;N/A;false;N/A;N/A;false;N/A;N/A;false;N/A;N/A;false;N/A;N/A;false;"(978) 371-2945";"Clerk's Office";true;"(978) 371-9919";"Probation Department";false;N/A;N/A;false;N/A;N/A;false;N/A;N/A;false;N/A;N/A;false;"\"Evan Gilman\". \"Jurors Only\".";None detected;Not yet handled
"Eastern Housing Court - Middlesex Session";https://www.mass.gov/locations/eastern-housing-court-middlesex-session;"Eastern Housing Court Division – Middlesex Session is located in Somerville District Court. \n\nThis location is only open on Fridays.  This sitting will serve Arlington, Belmont, Cambridge, Medford, Newton, and Somerville.";"175 Fellsway, Somerville, MA 02145";"Fridays, 8:30 a.m. This location is only open on Fridays.**";"(617) 788-8485";"Clerk’s Office";true;"(617) 788-6233";"Housing Specialist Department";false;N/A;N/A;false;N/A;N/A;false;N/A;N/A;false;N/A;N/A;false;N/A;N/A;false;N/A;N/A;false;N/A;N/A;false;N/A;N/A;false;N/A;N/A;false;N/A;N/A;false;N/A;N/A;false;N/A;N/A;false;N/A;N/A;false;N/A;N/A;false;N/A;N/A;false;"\"Natasha Woodley\". \"Phone:\". \"Fax:\". \"Email:\". \"Jurors Only\".";"\"Every Friday\".";Not yet handled
"Framingham District Court";https://www.mass.gov/locations/framingham-district-court;"This court serves Ashland, Framingham, Holliston, Hopkinton, Sudbury, and Wayland.";"600 Concord St., Framingham, MA 01701";"Monday - Friday: \n 8:30 am-4:30 pm";"(508) 875-7461";"Clerk's Office";true;"(508) 875-5241";"Probation Department";false;"(508) 875-2446";"TTY";false;N/A;N/A;false;N/A;N/A;false;N/A;N/A;false;N/A;N/A;false;N/A;N/A;false;N/A;N/A;false;N/A;N/A;false;N/A;N/A;false;N/A;N/A;false;N/A;N/A;false;N/A;N/A;false;N/A;N/A;false;N/A;N/A;false;N/A;N/A;false;"\"Damon Borrelli\". \"Jurors Only\".";None detected;Not yet handled
"Lowell District Court";https://www.mass.gov/locations/lowell-district-court;"This court serves Billerica, Chelmsford, Dracut, Lowell, Tewksbury, and Tyngsboro.";"370 Jackson St., Lowell, MA 01852";"Monday - Friday: \n 8:30 am-4:30 pm";"(978) 459-4101";"Clerk’s Office & Probation Department";true;N/A;N/A;false;N/A;N/A;false;N/A;N/A;false;N/A;N/A;false;N/A;N/A;false;N/A;N/A;false;N/A;N/A;false;N/A;N/A;false;N/A;N/A;false;N/A;N/A;false;"(978) 937-2486";"Clerk’s Office";true;"(978) 458-7149";"Probation Department";false;N/A;N/A;false;N/A;N/A;false;N/A;N/A;false;N/A;N/A;false;"\"Meredith Mingolelli Cotter\". \"Jurors Only\".";None detected;Not yet handled
"Malden District Court";https://www.mass.gov/locations/malden-district-court;"This court serves Malden, Melrose, Everett, and Wakefield.";"4040 Mystic Valley Parkway, Medford, MA 02155";"Monday - Friday: \n 8:30 am-4:30 pm";"(781) 322-7500";"Clerk’s Office & Probation Department";true;N/A;N/A;false;N/A;N/A;false;N/A;N/A;false;N/A;N/A;false;N/A;N/A;false;N/A;N/A;false;N/A;N/A;false;N/A;N/A;false;N/A;N/A;false;N/A;N/A;false;"(781) 322-0169";"Clerk’s Office";true;"(781) 322-1604";"Probation Department";false;N/A;N/A;false;N/A;N/A;false;N/A;N/A;false;N/A;N/A;false;"\"Cynthia Russell\". \"Hana Abdelouhab\". \"Jurors Only\".";None detected;Not yet handled
"Marlborough District Court";https://www.mass.gov/locations/marlborough-district-court;"This court serves Marlborough and Hudson.";"45 Williams St., Marlborough, MA 01752";"Monday - Friday: \n 8:30 am-4:30 pm";"(508) 485-3700";"Clerk’s Office";true;"(508) 485-1356";"Probation Department";false;N/A;N/A;false;N/A;N/A;false;N/A;N/A;false;N/A;N/A;false;N/A;N/A;false;N/A;N/A;false;N/A;N/A;false;N/A;N/A;false;N/A;N/A;false;"(508) 485-1575";"Clerk’s Office";true;"(508) 481-6857";"Probation Department";false;N/A;N/A;false;N/A;N/A;false;N/A;N/A;false;N/A;N/A;false;"\"James Fahey, Primary ADA Coordinator\". \"Andrew Souto, ADA Coordinator\". \"Jurors Only\".";None detected;Not yet handled
"Newton District Court";https://www.mass.gov/locations/newton-district-court;"This court serves Newton.";"1309 Washington St., West Newton, MA 02465";"Monday - Friday: \n 8:30 am-4:30 pm";"(617) 244-3600";"Clerk’s Office & Probation Department";true;N/A;N/A;false;N/A;N/A;false;N/A;N/A;false;N/A;N/A;false;N/A;N/A;false;N/A;N/A;false;N/A;N/A;false;N/A;N/A;false;N/A;N/A;false;N/A;N/A;false;"(617) 243-7291";"Clerk’s Office";true;"(617) 243-7292";"Probation Department";false;N/A;N/A;false;N/A;N/A;false;N/A;N/A;false;N/A;N/A;false;"\"Kathleen Sheridan\". \"Jurors Only\".";None detected;Not yet handled
"Somerville District Court";https://www.mass.gov/locations/somerville-district-court;"This court serves Medford and Somerville.";"175 Fellsway, Somerville, MA 02145";"Monday - Friday: \n 8:30 am-4:30 pm";"(617) 666-8000";"Clerk’s Office & Probation Department";true;"(617) 776-5645";"TTY";false;N/A;N/A;false;N/A;N/A;false;N/A;N/A;false;N/A;N/A;false;N/A;N/A;false;N/A;N/A;false;N/A;N/A;false;N/A;N/A;false;N/A;N/A;false;"(617) 776-2111";"Clerk’s Office";true;"(617) 666-4361";"Probation Department";false;N/A;N/A;false;N/A;N/A;false;N/A;N/A;false;N/A;N/A;false;"\"Donna Langill\". \"Jurors Only\".";None detected;Not yet handled
"Waltham District Court";https://www.mass.gov/locations/waltham-district-court;"This court serves Waltham, Watertown and Weston.";"38 Linden Street, Waltham, MA 02452";"Monday - Friday: \n 8:30 am-4:30 pm";"(781) 894-4500";"Clerk's Office and Probation Department";true;"(781) 894-1012";"TTY";false;N/A;N/A;false;N/A;N/A;false;N/A;N/A;false;N/A;N/A;false;N/A;N/A;false;N/A;N/A;false;N/A;N/A;false;N/A;N/A;false;N/A;N/A;false;N/A;N/A;false;N/A;N/A;false;N/A;N/A;false;N/A;N/A;false;N/A;N/A;false;N/A;N/A;false;"\"Darlene Gambucci\". \"Jurors Only\".";None detected;Not yet handled
"Woburn District Court";https://www.mass.gov/locations/woburn-district-court;"This court serves  Burlington, North Reading, Reading, Stoneham, Wilmington, Winchester, and Woburn.";"30 Pleasant Street, Woburn, MA 01801";"Monday - Friday: \n 8:30 am-4:30 pm";"(781) 935-4000";"Clerk's Office and Probation Department";true;"(781) 935-4000";"Criminal Department";false;"(781) 935-4000";"Civil Department";false;N/A;N/A;false;N/A;N/A;false;N/A;N/A;false;N/A;N/A;false;N/A;N/A;false;N/A;N/A;false;N/A;N/A;false;N/A;N/A;false;"(781) 933-4404";"Clerk's Office";true;"(781) 932-2593";"Probation Department";false;N/A;N/A;false;N/A;N/A;false;N/A;N/A;false;N/A;N/A;false;"\"Deborah Earl\". \"Carole Michelini\". \"Jurors Only\".";None detected;Not yet handled
"Northeast Housing Court - Lowell Session";https://www.mass.gov/locations/northeast-housing-court-lowell-session;"The Lowell session of the Northeast Housing Court serves Acton, Ashby, Ayer, Billerica, Boxborough, Carlisle, Chelmsford, Devens, Dracut, Dunstable, Groton, Littleton, Lowell, Maynard, Pepperell, Shirley, Stow, Tewksbury, Townsend, Tyngsborough, and Westford.";"370 Jackson Street, Lowell, MA 01852";"This location is open only when court is in session on Monday mornings.";"(978) 656-7600";"Clerk’s Office & Housing Specialist Department";true;N/A;N/A;false;N/A;N/A;false;N/A;N/A;false;N/A;N/A;false;N/A;N/A;false;N/A;N/A;false;N/A;N/A;false;N/A;N/A;false;N/A;N/A;false;N/A;N/A;false;N/A;N/A;false;N/A;N/A;false;N/A;N/A;false;N/A;N/A;false;N/A;N/A;false;N/A;N/A;false;"\"Cynthia Kappotis\".";None detected;Not yet handled
"Northeast Housing Court - Woburn Session";https://www.mass.gov/locations/northeast-housing-court-woburn-session;"The Woburn session of the Northeast Housing Court serves Bedford, Burlington, Concord, Everett, Lexington, Lincoln, Malden, Melrose, North Reading, Reading, Stoneham, Wakefield, Waltham, Watertown, Weston, Wilmington, Winchester, and Woburn. For Housing Court matters, information, or questions, please do not contact the Middlesex Superior Court.  Please call the Northeast Housing Court's main Clerk's Office in Lawrence at (978) 689-7833.";"200 Trade Center, Woburn, MA 01801";"Friday: \n 8:30 am-4:30 pm";"(978) 656-7600";"Clerk’s Office & Housing Specialist Department";true;N/A;N/A;false;N/A;N/A;false;N/A;N/A;false;N/A;N/A;false;N/A;N/A;false;N/A;N/A;false;N/A;N/A;false;N/A;N/A;false;N/A;N/A;false;N/A;N/A;false;N/A;N/A;false;N/A;N/A;false;N/A;N/A;false;N/A;N/A;false;N/A;N/A;false;N/A;N/A;false;"\"Cynthia Kappotis\".";None detected;Not yet handled
"Central Housing Court - Marlborough Session";https://www.mass.gov/locations/central-housing-court-marlborough-session;"The Marlborough session of the Central Division of the Housing Court serves Ashland, Berlin, Bolton, Framingham, Harvard, Holliston, Hopkinton, Hudson, Marlborough, Natick, Northborough, Sherborn, Southborough, Sudbury, Wayland, and Westborough.";"45 Williams St., Marlborough District Court, Marlborough, MA 01752";"All cases are heard on Tuesdays at 9:00 am at the Marlboro District Court, 45 Williams Street, Marlborough, MA, 01752. This location is open all day Tuesday while court is in session.";"(508) 831-2050";"Clerk's Office";true;"(508) 831-2050";"Housing Specialist Department";false;N/A;N/A;false;N/A;N/A;false;N/A;N/A;false;N/A;N/A;false;N/A;N/A;false;N/A;N/A;false;N/A;N/A;false;N/A;N/A;false;N/A;N/A;false;N/A;N/A;false;N/A;N/A;false;N/A;N/A;false;N/A;N/A;false;N/A;N/A;false;N/A;N/A;false;"\"Katie LaGorce\". \"Aracelis Arroyo Centeno\". \"Jurors Only\".";None detected;Not yet handled
"Cambridge Juvenile Court";https://www.mass.gov/locations/cambridge-juvenile-court;"The Middlesex County Juvenile Court in Cambridge serves Arlington, Belmont, Cambridge, Everett, Malden, Medford, Melrose, Somerville, and Wakefield.";"121 Third St., Cambridge, MA 02141";"Monday - Friday: \n 8:30 am-4:30 pm";"(617) 494-4100";"Clerk’s Office, Probation Department, & TTY";true;N/A;N/A;false;N/A;N/A;false;N/A;N/A;false;N/A;N/A;false;N/A;N/A;false;N/A;N/A;false;N/A;N/A;false;N/A;N/A;false;N/A;N/A;false;N/A;N/A;false;N/A;N/A;false;N/A;N/A;false;N/A;N/A;false;N/A;N/A;false;N/A;N/A;false;N/A;N/A;false;"\"Lissette Rivera\". \"Judith Evers\". \"Jurors Only\".";None detected;Not yet handled
"Framingham Juvenile Court";https://www.mass.gov/locations/framingham-juvenile-court;"The Middlesex County Juvenile Court in Framingham serves Acton, Ashland, Bedford, Carlisle, Concord, Framingham, Holliston, Hopkinton, Hudson, Lexington, Lincoln, Marlborough, Maynard, Natick, Sherborn, Stow, Sudbury, and Wayland.";"110 Mount Wayte Ave., Framingham, MA 01702";"Monday - Friday: \n 8:30 am-4:30 pm";"(508) 879-3561";"Clerk’s Office & Probation Department";true;"(508) 879-4153";"TTY";false;N/A;N/A;false;N/A;N/A;false;N/A;N/A;false;N/A;N/A;false;N/A;N/A;false;N/A;N/A;false;N/A;N/A;false;N/A;N/A;false;N/A;N/A;false;N/A;N/A;false;N/A;N/A;false;N/A;N/A;false;N/A;N/A;false;N/A;N/A;false;N/A;N/A;false;"\"Lissette Rivera\". \"Judith Evers\".";None detected;Not yet handled
"Lowell Juvenile Court";https://www.mass.gov/locations/lowell-juvenile-court;"The Middlesex County Juvenile Court in Lowell serves Ashby, Ayer, Billerica, Boxborough, Burlington, Chelmsford, Dracut, Dunstable, Groton, Littleton, Lowell, North Reading, Pepperell, Reading, Shirley, Stoneham, Tewksbury, Townsend, Tyngsborough, Westford, Wilmington, Winchester and Woburn. \n\nCare and Protection cases are heard in Cambridge. Delinquency, Youthful Offender, Adult Criminal, Harassment, and Child Requiring Assistance cases are heard in Lowell.";"370 Jackson St., Lowell, MA 01852";"Monday - Friday: \n 8:30 am-4:30 pm";"(978) 441-2630";"Clerk’s Office";true;"(978) 441-3160";"Probation Department";false;"(978) 441-2713";"TTY";false;N/A;N/A;false;N/A;N/A;false;N/A;N/A;false;N/A;N/A;false;N/A;N/A;false;N/A;N/A;false;N/A;N/A;false;N/A;N/A;false;N/A;N/A;false;N/A;N/A;false;N/A;N/A;false;N/A;N/A;false;N/A;N/A;false;N/A;N/A;false;"\"Lissette Rivera\". \"Judith Evers\". \"Jurors Only\".";None detected;Not yet handled
"Waltham Juvenile Court";https://www.mass.gov/locations/waltham-juvenile-court;"The Middlesex County Juvenile Court in Waltham serves Concord, Newton, Watertown, Waltham and Weston.";"38 Linden St., Waltham, MA 02452";"Monday - Friday: \n 8:30 am-4:30 pm";"(781) 899-7672";"Clerk’s Office & Probation Department";true;N/A;N/A;false;N/A;N/A;false;N/A;N/A;false;N/A;N/A;false;N/A;N/A;false;N/A;N/A;false;N/A;N/A;false;N/A;N/A;false;N/A;N/A;false;N/A;N/A;false;N/A;N/A;false;N/A;N/A;false;N/A;N/A;false;N/A;N/A;false;N/A;N/A;false;N/A;N/A;false;"\"Lissette Rivera\". \"Judith Evers\".";None detected;Not yet handled
"Middlesex Probate and Family Court North - Lowell";https://www.mass.gov/locations/middlesex-probate-and-family-court-north-lowell;"Effective March 1, 2023, Burlington will now be part of the Woburn (South) catchment area.  \n\nThis court serves Acton, Ashby, Ashland, Ayer, Bedford, Billerica, Boxborough, Carlisle, Chelmsford, Concord, Dracut, Dunstable, Framingham, Groton, Holliston, Hopkinton, Hudson, Lincoln, Littleton, Lowell, Marlborough, Maynard, Natick, North Reading, Pepperrell, Reading, Sherborn, Shirley, Stow, Sudbury, Tewksbury, Townsend, Tyngsborough, Wayland, Westford, and Wilmington.";"370 Jackson Street, 5th floor, Lowell, MA 01852";"Monday - Friday: \n 8:00 am-4:30 pm";"(978) 656-7700";"Main";false;N/A;N/A;false;N/A;N/A;false;N/A;N/A;false;N/A;N/A;false;N/A;N/A;false;N/A;N/A;false;N/A;N/A;false;N/A;N/A;false;N/A;N/A;false;N/A;N/A;false;"(978) 619-1014";"Clerk's Office";true;"(978) 619-1015";"Probation";false;"(978) 619-1016";"Secretaries/Lobby";false;N/A;N/A;false;N/A;N/A;false;N/A;N/A;false;"\"Jillian Martin\".";None detected;Not yet handled
"Middlesex Probate and Family Court South - Woburn";https://www.mass.gov/locations/middlesex-probate-and-family-court-south-woburn;"Effective March 1, 2023, Burlington will now be part of the Woburn (South) catchment area.  \n\nThis court serves Arlington, Belmont, Burlington, Cambridge, Everett, Lexington, Malden, Medford, Melrose, Newton, Somerville, Stoneham, Wakefield, Waltham, Watertown, Weston, Winchester, and Woburn.";"10-U Commerce Way, Woburn, MA 01801";"Monday - Friday: \n 8:00 am-4:30 pm";"(781) 865-4000";"Main";false;"(781) 865-4002";"Adoption/SIJS";false;"(781) 865-4004";"Divorce";false;"(781) 865-4007";"Paternity";false;"(781) 865-4008";"Probate (Estates/Guardianships)";false;N/A;N/A;false;N/A;N/A;false;N/A;N/A;false;N/A;N/A;false;N/A;N/A;false;N/A;N/A;false;"(617) 225-0781";"Registry";false;"(781) 528-2318";"Lobby";false;"(617) 374-9845";"Probation";false;N/A;N/A;false;N/A;N/A;false;N/A;N/A;false;"\"Lauren Fraser\".";"\"Physical address & mailing address\".";Not yet handled
"Middlesex County Superior Court";https://www.mass.gov/locations/middlesex-county-superior-court;"This court serves all cities and towns of Middlesex County. Please note that this court can't accept Housing Court filings for Northeast Housing Court - Woburn Session. \n\nThe mailing address for this court is:\n\n200 Trade Center, 2nd Floor, Woburn, MA 01801";"200 Tradecenter Drive, Woburn, MA 01801";"Monday - Friday: \n 8:30 am-4:30 pm";"(781) 939-2700";"Clerk’s Office & Probation Department";true;N/A;N/A;false;N/A;N/A;false;N/A;N/A;false;N/A;N/A;false;N/A;N/A;false;N/A;N/A;false;N/A;N/A;false;N/A;N/A;false;N/A;N/A;false;N/A;N/A;false;"(781) 939-0951";"Probation Department";false;N/A;N/A;false;N/A;N/A;false;N/A;N/A;false;N/A;N/A;false;N/A;N/A;false;"\"Matt Day\". \"Jurors Only\".";None detected;Not yet handled
"Middlesex County Superior Court - Lowell";https://www.mass.gov/locations/middlesex-county-superior-court-lowell;"This court serves all cities and towns of Middlesex County.";"370 Jackson St., Lowell, MA 01852";"Monday - Friday: \n 8:30 am-4:30 pm";"(978) 656-7800";"Clerk’s Office";true;"(978) 656-7850";"Probation Department";false;N/A;N/A;false;N/A;N/A;false;N/A;N/A;false;N/A;N/A;false;N/A;N/A;false;N/A;N/A;false;N/A;N/A;false;N/A;N/A;false;N/A;N/A;false;"(978) 454-0430";"Probation Department";false;N/A;N/A;false;N/A;N/A;false;N/A;N/A;false;N/A;N/A;false;N/A;N/A;false;"\"Matt Day\". \"Jurors Only\".";None detected;Not yet handled
"Nantucket District Court";https://www.mass.gov/locations/nantucket-district-court;"This court serves Nantucket County.";"16 Broad St., Nantucket, MA 02554";"Monday - Friday: \n 8:30 am-4:30 pm";"(508) 228-0460";"Clerk’s Office";true;"(508) 228-3232";"Probation Department";false;N/A;N/A;false;N/A;N/A;false;N/A;N/A;false;N/A;N/A;false;N/A;N/A;false;N/A;N/A;false;N/A;N/A;false;N/A;N/A;false;N/A;N/A;false;"(508) 325-5759";"Clerk’s Office";true;"(508) 325-5153";"Probation Department";false;N/A;N/A;false;N/A;N/A;false;N/A;N/A;false;N/A;N/A;false;"\"Susan Beamish\". \"Jurors Only\".";None detected;Not yet handled
"Nantucket Juvenile Court";https://www.mass.gov/locations/nantucket-juvenile-court;"The Barnstable County-Town of Plymouth Division of the Juvenile Court in Nantucket serves all towns in Nantucket County.";"16 Broad St., Nantucket, MA 02554";"Need to add something here";"(508) 325-4265";"Clerk's Office";true;"(508) 495-1696";"Clerk's Office";true;"(508) 325-4265";"Probation Department";false;"(508) 495-1693";"Probation Department";false;N/A;N/A;false;N/A;N/A;false;N/A;N/A;false;N/A;N/A;false;N/A;N/A;false;N/A;N/A;false;N/A;N/A;false;N/A;N/A;false;N/A;N/A;false;N/A;N/A;false;N/A;N/A;false;N/A;N/A;false;N/A;N/A;false;None detected;None detected;Not yet handled
"Nantucket Probate and Family Court";https://www.mass.gov/locations/nantucket-probate-and-family-court;"This court serves Nantucket county.\n\nThe mailing address for this court is:\n\n16 Broad St., 2nd floor, P.O. Box 1116, Nantucket, MA 02554";"16 Broad St., Nantucket, MA 02554";"Monday - Friday: \n 8:30 am-4:00 pm";"(508) 228-2669";"Register’s Office & Probation Department";false;N/A;N/A;false;N/A;N/A;false;N/A;N/A;false;N/A;N/A;false;N/A;N/A;false;N/A;N/A;false;N/A;N/A;false;N/A;N/A;false;N/A;N/A;false;N/A;N/A;false;"(508) 228-3662";"Register’s Office";false;N/A;N/A;false;N/A;N/A;false;N/A;N/A;false;N/A;N/A;false;N/A;N/A;false;"\"Sarah Maxwell\".";None detected;Not yet handled
"Nantucket County Superior Court";https://www.mass.gov/locations/nantucket-county-superior-court;"This court serves all cities and towns in Nantucket County.";"16 Broad St., Nantucket, MA 02544";"Monday - Friday: \n 8:00 am-4:00 pm";"(508) 228-2559";"Clerk’s Office";true;"(508) 375-6650";"Probation Department";false;N/A;N/A;false;N/A;N/A;false;N/A;N/A;false;N/A;N/A;false;N/A;N/A;false;N/A;N/A;false;N/A;N/A;false;N/A;N/A;false;N/A;N/A;false;"(508) 228-3725";"Clerk’s Office";true;N/A;N/A;false;N/A;N/A;false;N/A;N/A;false;N/A;N/A;false;N/A;N/A;false;"\"Susan Beamish\".";None detected;Not yet handled
"Brookline District Court";https://www.mass.gov/locations/brookline-district-court;"The Brookline District Court serves the town of Brookline.";"360 Washington St., Brookline, MA 02445";"Monday - Friday: \n 8:30 am-4:30 pm";"(617) 232-4660";"Clerk's Office";true;"(617) 277-9032";"Probation Department";false;N/A;N/A;false;N/A;N/A;false;N/A;N/A;false;N/A;N/A;false;N/A;N/A;false;N/A;N/A;false;N/A;N/A;false;N/A;N/A;false;N/A;N/A;false;N/A;N/A;false;N/A;N/A;false;N/A;N/A;false;N/A;N/A;false;N/A;N/A;false;N/A;N/A;false;"\"Amanda Savi-Ralli\". \"Janice Sennott\".";None detected;Not yet handled
"Dedham District Court";https://www.mass.gov/locations/dedham-district-court;"This court serves Dedham, Dover, Medfield, Needham, Norwood, Wellesley, and Westwood.";"631 High St., Dedham, MA 02026";"Monday - Friday: \n 8:30 am-4:30 pm";"(781) 329-4777";"Clerk's Office & Probation Department";true;N/A;N/A;false;N/A;N/A;false;N/A;N/A;false;N/A;N/A;false;N/A;N/A;false;N/A;N/A;false;N/A;N/A;false;N/A;N/A;false;N/A;N/A;false;N/A;N/A;false;N/A;N/A;false;N/A;N/A;false;N/A;N/A;false;N/A;N/A;false;N/A;N/A;false;N/A;N/A;false;"\"Eileen M. McDonnell\". \"Jurors Only\".";None detected;Not yet handled
"Quincy District Court";https://www.mass.gov/locations/quincy-district-court;"This court serves Braintree, Cohasset, Holbrook, Milton, Quincy, Randolph, and Weymouth.";"1 Dennis Ryan Parkway, Quincy, MA 02169";"Monday - Friday: \n 8:30 am-4:30 pm";"(617) 471-1650";"Clerk’s Office";true;"(617) 847-8963";"Probation Department";false;N/A;N/A;false;N/A;N/A;false;N/A;N/A;false;N/A;N/A;false;N/A;N/A;false;N/A;N/A;false;N/A;N/A;false;N/A;N/A;false;N/A;N/A;false;"(617) 472-1924";"Clerk's Office";true;N/A;N/A;false;N/A;N/A;false;N/A;N/A;false;N/A;N/A;false;N/A;N/A;false;"\"Rosanna Guarino\". \"Patricia McGill\".";"\"Clerk’s Office\". \"Probation Department\".";Not yet handled
"Stoughton District Court";https://www.mass.gov/locations/stoughton-district-court;"This court serves Avon, Canton, Sharon and Stoughton.";"1288 Central St., Stoughton, MA 02072";"Monday - Friday: \n 8:30 am-4:30 pm";"(781) 344-2131";"Clerk’s Office";true;"(781) 344-4810";"Probation Department";false;N/A;N/A;false;N/A;N/A;false;N/A;N/A;false;N/A;N/A;false;N/A;N/A;false;N/A;N/A;false;N/A;N/A;false;N/A;N/A;false;N/A;N/A;false;"(781) 341-8744";"Clerk’s Office";true;"(781) 341-9052";"Probation Department";false;N/A;N/A;false;N/A;N/A;false;N/A;N/A;false;N/A;N/A;false;"\"Linda Siegel\". \"Jurors Only\".";None detected;Not yet handled
"Wrentham District Court";https://www.mass.gov/locations/wrentham-district-court;"This court serves Foxborough, Franklin, Medway, Millis, Norfolk, Plainville, Walpole, and Wrentham.";"60 East St., Wrentham, MA 02093";"Monday - Friday: \n 8:30 am-4:30 pm";"(508) 384-3106";"Main Number:";false;"(508) 384-3106";"Criminal Clerk";true;"(508) 384-3106";"Civil Clerk";true;"(508) 384-3106";"Civil CMC/PTC Liaison/ Small Claims";false;"(508) 384-3106";"Supplementary Proceedings";false;"(508) 384-3106";"Clerk Hearings/ Video Conference Coordinator";true;"(508) 384-3106";"Bookkeeping Department";false;"(508) 384-8141";"Probation Department";false;N/A;N/A;false;N/A;N/A;false;N/A;N/A;false;N/A;N/A;false;N/A;N/A;false;N/A;N/A;false;N/A;N/A;false;N/A;N/A;false;N/A;N/A;false;"\"Diane Duffey\". \"Jurors Only\".";None detected;Not yet handled
"Dedham Juvenile Court";https://www.mass.gov/locations/dedham-juvenile-court;"The Norfolk County Juvenile Court in Dedham serves Avon, Canton, Dedham, Dover, Foxborough, Franklin, Medfield, Medway, Millis, Needham, Norfolk, Norwood, Plainville, Sharon, Stoughton, Walpole, Wellesley, Westwood, and Wrentham.";"55 Allied Drive, Dedham, MA 02026";"Monday - Friday: \n 8:30 am-4:30 pm";"(781) 329-1500";"Clerk's Office and Probation Department";true;"(781) 329-6984";"TTY";false;N/A;N/A;false;N/A;N/A;false;N/A;N/A;false;N/A;N/A;false;N/A;N/A;false;N/A;N/A;false;N/A;N/A;false;N/A;N/A;false;N/A;N/A;false;N/A;N/A;false;N/A;N/A;false;N/A;N/A;false;N/A;N/A;false;N/A;N/A;false;N/A;N/A;false;"\"Keth Healey\". \"Etta Dunn\". \"Jurors Only\".";None detected;Not yet handled
"Quincy Juvenile Court";https://www.mass.gov/locations/quincy-juvenile-court;"The Norfolk County Juvenile Court in Quincy serves Braintree, Cohasset, Holbrook, Milton, Quincy, Randolph, and Weymouth.\n\nCare and Protection are filed in Dedham.  \n\nDelinquency, Youthful Offender, and Adult Criminal are heard in Quincy, with the exception of Jury Trials which are heard in Dedham.";"1 Dennis Ryan Parkway, Quincy, MA 02169";"Monday - Friday: \n 8:30 am-4:30 pm";"(617) 376-7505";"Clerk's Office";true;"(617) 376-7505";"Probation Department";false;"(617) 376-2116";"TTY";false;N/A;N/A;false;N/A;N/A;false;N/A;N/A;false;N/A;N/A;false;N/A;N/A;false;N/A;N/A;false;N/A;N/A;false;N/A;N/A;false;N/A;N/A;false;N/A;N/A;false;N/A;N/A;false;N/A;N/A;false;N/A;N/A;false;N/A;N/A;false;"\"Keth Healey\". \"Etta Dunn\". \"Jurors Only\".";None detected;Not yet handled
"Stoughton Juvenile Court";https://www.mass.gov/locations/stoughton-juvenile-court;"Cases are heard at the Norfolk County Juvenile Court in Stoughton when scheduled by the court.";"1288 Central St., Stoughton, MA 02072";"Monday - Friday: \n 8:30 am-4:30 pm";"(781) 329-1500";"Clerk's Office and Probation Department";true;"(781) 341-9162";"Clerk's Office and Probation Department";true;N/A;N/A;false;N/A;N/A;false;N/A;N/A;false;N/A;N/A;false;N/A;N/A;false;N/A;N/A;false;N/A;N/A;false;N/A;N/A;false;N/A;N/A;false;N/A;N/A;false;N/A;N/A;false;N/A;N/A;false;N/A;N/A;false;N/A;N/A;false;N/A;N/A;false;"\"Keth Healey\". \"Etta Dunn\".";None detected;Not yet handled
"Metro South Housing Court - Canton Session";https://www.mass.gov/locations/metro-south-housing-court-canton-session;"The Metro South Housing Court - Canton Session serves Avon, Bellingham, Braintree, Canton, Cohasset, Dedham, Dover, Foxborough, Franklin, Holbrook, Medfield, Medway, Millis, Milton, Needham, Norfolk, Norwood, Plainville, Quincy, Randolph, Sharon, Stoughton, Walpole, Wellesley, Westwood, Weymouth, and Wrentham";"35 Shawmut Road, Canton, MA 02021";"Fridays from 8:30 a.m. until the end of session";"(781) 830-0025";"Clerk's Office & Housing Specialist Department";true;N/A;N/A;false;N/A;N/A;false;N/A;N/A;false;N/A;N/A;false;N/A;N/A;false;N/A;N/A;false;N/A;N/A;false;N/A;N/A;false;N/A;N/A;false;N/A;N/A;false;"(508) 894-4166";"Clerk's Office & Housing Specialist Department";true;N/A;N/A;false;N/A;N/A;false;N/A;N/A;false;N/A;N/A;false;N/A;N/A;false;"\"Catarina Andrade\".";None detected;Not yet handled
"Norfolk Probate and Family Court";https://www.mass.gov/locations/norfolk-probate-and-family-court;"This court serves Avon, Bellingham, Braintree, Brookline, Canton, Cohasset, Dedham, Dover, Foxborough, Franklin, Holbrook, Medfield, Medway, Millis, Milton, Needham, Norfolk, Norwood, Plainville, Quincy, Randolph, Sharon, Stoughton, Walpole, Wellesley, Westwood, Weymouth,  and Wrentham.";"35 Shawmut Road, Canton, MA 02021";"Monday - Friday: \n 8:30 am-4:30 pm";"(781) 830-1200";"Register's Office";false;"(781) 830-1249";"Probation Office";false;N/A;N/A;false;N/A;N/A;false;N/A;N/A;false;N/A;N/A;false;N/A;N/A;false;N/A;N/A;false;N/A;N/A;false;N/A;N/A;false;N/A;N/A;false;"(781) 830-4310";"Register's Office";false;"(781) 830-4320";"Probation Office";false;N/A;N/A;false;N/A;N/A;false;N/A;N/A;false;N/A;N/A;false;"\"Jay Fielding\".";None detected;Not yet handled
"Norfolk County Superior Court";https://www.mass.gov/locations/norfolk-county-superior-court;"This court serves all cities and towns in Norfolk County.";"650 High Street, Dedham, MA 02026";"Monday - Friday: \n 8:30 am-4:30 pm";"(781) 326-1600";"Clerk's Office";true;"(781) 326-3871";"Civil Clerk's Office";true;"(781) 320-9726";"Criminal Clerk's Office";true;"(781) 326-5190";"Probation Department";false;N/A;N/A;false;N/A;N/A;false;N/A;N/A;false;N/A;N/A;false;N/A;N/A;false;N/A;N/A;false;N/A;N/A;false;N/A;N/A;false;N/A;N/A;false;N/A;N/A;false;N/A;N/A;false;N/A;N/A;false;N/A;N/A;false;"\"Mary Hickey\". \"Jurors Only\".";"\"Address for Jury Pool\". \"Probation Department\".";Not yet handled
"Brockton District Court";https://www.mass.gov/locations/brockton-district-court;"This court serves Abington, Bridgewater, Brockton, East Bridgewater, West Bridgewater, and Whitman.";"215 Main St., Brockton, MA 02301";"Monday - Friday: \n 8:30 am-4:30 pm";"(508) 587-8000";"Clerk's Office & Probation";true;N/A;N/A;false;N/A;N/A;false;N/A;N/A;false;N/A;N/A;false;N/A;N/A;false;N/A;N/A;false;N/A;N/A;false;N/A;N/A;false;N/A;N/A;false;N/A;N/A;false;"(508) 587-6791";"Criminal Department";false;"(508) 587-0034";"Civil Department";false;"(508) 588-6719";"Probation";false;N/A;N/A;false;N/A;N/A;false;N/A;N/A;false;"\"Roderick Wilmore\".";None detected;Not yet handled
"Hingham District Court";https://www.mass.gov/locations/hingham-district-court;"This court serves Hanover, Hingham, Hull, Norwell, Rockland, and Scituate.";"28 George Washington Blvd., Hingham, MA 02043";"Monday - Friday: \n 8:30 am-4:30 pm";"(781) 749-7000";"Clerk’s Office & Probation Department";true;N/A;N/A;false;N/A;N/A;false;N/A;N/A;false;N/A;N/A;false;N/A;N/A;false;N/A;N/A;false;N/A;N/A;false;N/A;N/A;false;N/A;N/A;false;N/A;N/A;false;"(781) 740-8390";"Clerk’s Office";true;"(781) 741-5215";"Probation Department";false;N/A;N/A;false;N/A;N/A;false;N/A;N/A;false;N/A;N/A;false;"\"Caroline Field\". \"Jurors Only\".";None detected;Not yet handled
"Plymouth District Court";https://www.mass.gov/locations/plymouth-district-court;"This court serves Duxbury, Halifax, Hanson, Kingston, Marshfield, Pembroke, Plymouth, and Plympton.";"52 Obery St., Plymouth, MA 02360";"Monday - Friday: \n 8:30 am-4:30 pm";"(508) 747-8400";"Clerk’s Office";true;"(508) 747-8430";"Probation Department";false;N/A;N/A;false;N/A;N/A;false;N/A;N/A;false;N/A;N/A;false;N/A;N/A;false;N/A;N/A;false;N/A;N/A;false;N/A;N/A;false;N/A;N/A;false;"(508) 830-9303";"Clerk’s Office";true;"(508) 747-5255";"Probation Department";false;N/A;N/A;false;N/A;N/A;false;N/A;N/A;false;N/A;N/A;false;"\"Angela Martin\". \"Jill Johnson\". \"Jurors Only\".";None detected;Not yet handled
"Wareham District Court";https://www.mass.gov/locations/wareham-district-court;"This court serves Carver, Lakeville, Marion, Mattapoisett, Middleboro, Rochester and Wareham.";"2200 Cranberry Highway, Wareham, MA 02576";"Monday - Friday: \n 8:30 am-4:30 pm";"(508) 295-8300";"Clerk's Office and Probation Department";true;N/A;N/A;false;N/A;N/A;false;N/A;N/A;false;N/A;N/A;false;N/A;N/A;false;N/A;N/A;false;N/A;N/A;false;N/A;N/A;false;N/A;N/A;false;N/A;N/A;false;"(508) 291-6376";"Clerk's Office";true;"(508) 291-2931";"Probation Department";false;N/A;N/A;false;N/A;N/A;false;N/A;N/A;false;N/A;N/A;false;"\"Sinceré Goodman\". \"Jurors Only\".";None detected;Not yet handled
"Metro South Housing Court - Brockton Session";https://www.mass.gov/locations/metro-south-housing-court-brockton-session;"The Metro South Housing Court - Brockton Session serves Abington, Bridgewater, Brockton, East Bridgewater,  West Bridgewater, and Whitman.\n\nThe Metro South Housing Court - Canton Session serves Avon, Bellingham, Braintree, Canton, Cohasset, Dedham, Dover, Foxborough, Franklin, Holbrook, Medfield, Medway, Millis, Milton, Needham, Norfolk, Norwood, Plainville, Quincy, Randolph, Sharon, Stoughton, Walpole, Wellesley, Westwood, Weymouth, and Wrentham.";"215 Main St., Suite 160, Brockton, MA 02301";"Monday - Friday: \n 8:30 am-4:30 pm";"(508) 894-4170";"Clerk’s Office & Housing Specialist Department";true;N/A;N/A;false;N/A;N/A;false;N/A;N/A;false;N/A;N/A;false;N/A;N/A;false;N/A;N/A;false;N/A;N/A;false;N/A;N/A;false;N/A;N/A;false;N/A;N/A;false;"(508) 894-4168";"Clerk’s Office & Housing Specialist Department";true;N/A;N/A;false;N/A;N/A;false;N/A;N/A;false;N/A;N/A;false;N/A;N/A;false;"\"Catarina Andrade\". \"Jurors Only\".";None detected;Not yet handled
"Southeast Housing Court - Plymouth Session";https://www.mass.gov/locations/southeast-housing-court-plymouth-session;"The Plymouth session of the Southeast Housing Court serves Accord, Assinippi, Bryantville, Carver, South Carver, Duxbury, Greenbush, Green Harbour, Halifax, Hanover, Hanson, Hingham, Hull, Humarock, Kingston, Lakeville, Manomet, Marion, Marshfield, Mattapoisett, Middleborough, Norwell, Onset, Pembroke, North Pembroke, Plymouth, Plympton, Rochester, Rockland, Scituate, Whitman, Wareham, West Wareham.";"52 Obery St., Plymouth, MA 02360";"Monday: \n 8:30 am-4:30 pm\n \n\n Wednesday: \n 8:30 am-4:30 pm\n \n\n Friday: \n 8:30 am-4:30 pm";"(508) 747-8550";"Clerk’s Office & Housing Specialist Department";true;N/A;N/A;false;N/A;N/A;false;N/A;N/A;false;N/A;N/A;false;N/A;N/A;false;N/A;N/A;false;N/A;N/A;false;N/A;N/A;false;N/A;N/A;false;N/A;N/A;false;"(508) 747-2017";"Clerk’s Office & Housing Specialist Department";true;N/A;N/A;false;N/A;N/A;false;N/A;N/A;false;N/A;N/A;false;N/A;N/A;false;"\"Suzette Fagan Clarke\". \"Jurors Only\".";None detected;Not yet handled
"Brockton Juvenile Court";https://www.mass.gov/locations/brockton-juvenile-court;"The Plymouth County Juvenile Court in Brockton serves Abington, Bridgewater, Brockton, E. Bridgewater, W. Bridgewater, and Whitman.";"215 Main St., Brockton, MA 02301";"Monday - Friday: \n 8:30 am-4:30 pm";"(508) 897-4900";"Clerk’s Office";true;"(508) 897-4910";"Probation Department";false;N/A;N/A;false;N/A;N/A;false;N/A;N/A;false;N/A;N/A;false;N/A;N/A;false;N/A;N/A;false;N/A;N/A;false;N/A;N/A;false;N/A;N/A;false;N/A;N/A;false;N/A;N/A;false;N/A;N/A;false;N/A;N/A;false;N/A;N/A;false;N/A;N/A;false;"\"Carolyn Gomes\". \"Jurors Only\".";None detected;Not yet handled
"Hingham Juvenile Court";https://www.mass.gov/locations/hingham-juvenile-court;"The Plymouth County Juvenile Court in Hingham serves Hanover, Hingham, Hull, Norwell, Rockland, and Scituate.";"28 George Washington Blvd., Hingham, MA 02043";"Hours vary";"(781) 741-6007";"Clerk’s Office";true;"781-741-6003";"Probation Department";false;N/A;N/A;false;N/A;N/A;false;N/A;N/A;false;N/A;N/A;false;N/A;N/A;false;N/A;N/A;false;N/A;N/A;false;N/A;N/A;false;N/A;N/A;false;N/A;N/A;false;N/A;N/A;false;N/A;N/A;false;N/A;N/A;false;N/A;N/A;false;N/A;N/A;false;"\"Carolyn Gomes\".";None detected;Not yet handled
"Wareham Juvenile Court";https://www.mass.gov/locations/wareham-juvenile-court;"The Plymouth County Juvenile Court in Wareham serves Carver, Lakeville, Marion, Mattapoisett, Middleborough, Rochester, and Wareham.";"2200 Cranberry Highway, West Wareham, MA 02576";"Monday - Friday: \n 8:30 am-4:30 pm";"(508) 291-8407";"Clerk’s Office";true;"(508) 291-8466";"Probation Department";false;N/A;N/A;false;N/A;N/A;false;N/A;N/A;false;N/A;N/A;false;N/A;N/A;false;N/A;N/A;false;N/A;N/A;false;N/A;N/A;false;N/A;N/A;false;N/A;N/A;false;N/A;N/A;false;N/A;N/A;false;N/A;N/A;false;N/A;N/A;false;N/A;N/A;false;"\"Carolyn Gomes\".";None detected;Not yet handled
"Plymouth Juvenile Court";https://www.mass.gov/locations/plymouth-juvenile-court;"The Barnstable County-Town of Plymouth Division of the Juvenile Court in Plymouth serves Duxbury, Halifax, Hanson, Kingston, Marshfield, Pembroke, Plymouth, and Plympton.";"52 Obery St., Suite 1092, Plymouth, MA 02360";"Hours vary";"(508) 747-0858";"Clerk's Office";true;"(508) 747-8400";"Probation Department";false;N/A;N/A;false;N/A;N/A;false;N/A;N/A;false;N/A;N/A;false;N/A;N/A;false;N/A;N/A;false;N/A;N/A;false;N/A;N/A;false;N/A;N/A;false;N/A;N/A;false;N/A;N/A;false;N/A;N/A;false;N/A;N/A;false;N/A;N/A;false;N/A;N/A;false;"\"Anastatia (Statia) Andrade\". \"Jurors Only\".";None detected;Not yet handled
"Plymouth Probate and Family Court";https://www.mass.gov/locations/plymouth-probate-and-family-court;"This court serves Abington, Bridgewater, Brockton, Carver, Duxbury, East Bridgewater, Halifax, Hanover, Hanson, Hingham, Hull, Kingston, Lakeville, Marion, Marshfield, Mattapoisett, Middleborough, Norwell, Pembroke, Plymouth, Plympton, Rochester, Rockland, Scituate, Wareham, West Bridgewater, Whitman.";"52 Obery St., Plymouth, MA 02360";"Monday - Friday: \n 8:30 am-4:30 pm";"(508) 747-6204";"Clerk’s Office";true;"1-646-828-7666";"Virtual Registry";false;N/A;N/A;false;N/A;N/A;false;N/A;N/A;false;N/A;N/A;false;N/A;N/A;false;N/A;N/A;false;N/A;N/A;false;N/A;N/A;false;N/A;N/A;false;"(508) 746-6846";"Clerk’s Office";true;N/A;N/A;false;N/A;N/A;false;N/A;N/A;false;N/A;N/A;false;N/A;N/A;false;"\"Laura Hatton\".";"\"Register’s Office\".";Not yet handled
"Brockton Probate and Family Court";https://www.mass.gov/locations/brockton-probate-and-family-court;"This court serves Abington, Bridgewater, Brockton, Carver, Duxbury, East Bridgewater, Halifax, Hanover, Hanson, Hingham, Hull, Kingston, Lakeville, Marion, Marshfield, Mattapoisett, Middleboro, Norwell, Pembroke , Plymouth, Plympton, Rochester, Rockland, Scituate, Wareham, West Bridgewater, and Whitman.";"215 Main St., Brockton, MA 02303";"Monday - Friday: \n 8:30 am-4:30 pm";"(508) 897-5400";"Register’s Office";false;"(508) 897-5400";"Probation Department";false;"(508) 747-8400";"TTY";false;"1-646-828-7666";"Virtual Registry";false;N/A;N/A;false;N/A;N/A;false;N/A;N/A;false;N/A;N/A;false;N/A;N/A;false;N/A;N/A;false;N/A;N/A;false;"(508) 584-4142";"Register’s Office";false;"(508) 583-2545";"Probation Department";false;N/A;N/A;false;N/A;N/A;false;N/A;N/A;false;N/A;N/A;false;"\"Laura Hatton\".";None detected;Not yet handled
"Plymouth County Superior Court";https://www.mass.gov/locations/plymouth-county-superior-court;"This court serves all cities and towns in Plymouth County. Criminal sessions are held in Brockton.";"52 Obery St., Plymouth, MA 02630";"Monday - Friday: \n 8:30 am-4:30 pm";"(508) 747-8400";"Clerk’s Office";true;"(508) 583-8250";"Probation Department";false;N/A;N/A;false;N/A;N/A;false;N/A;N/A;false;N/A;N/A;false;N/A;N/A;false;N/A;N/A;false;N/A;N/A;false;N/A;N/A;false;N/A;N/A;false;"(508) 830-0676";"Clerk’s Office";true;"(508) 583-7701";"Probation Department";false;N/A;N/A;false;N/A;N/A;false;N/A;N/A;false;N/A;N/A;false;"\"Ulisses Varela\". \"Jurors Only\".";None detected;Not yet handled
"Plymouth County Superior Court - Brockton";https://www.mass.gov/locations/plymouth-county-superior-court-brockton;"This court serves all cities and towns in Plymouth County.";"72 Belmont St., Brockton, MA 02301";"Monday - Friday: \n 8:30 am-4:30 pm";"(508) 583-8250";"Clerk’s Office & Probation Department";true;N/A;N/A;false;N/A;N/A;false;N/A;N/A;false;N/A;N/A;false;N/A;N/A;false;N/A;N/A;false;N/A;N/A;false;N/A;N/A;false;N/A;N/A;false;N/A;N/A;false;"(508) 584-5639";"Clerk’s Office";true;"(508) 583-7701";"Probation Department";false;N/A;N/A;false;N/A;N/A;false;N/A;N/A;false;N/A;N/A;false;"\"Ulisses Varela\". \"Jurors Only\".";None detected;Not yet handled
"Brighton Division, Boston Municipal Court";https://www.mass.gov/locations/brighton-division-boston-municipal-court;"The Brighton division of the BMC serves Allston and Brighton.";"52 Academy Hill Rd., Brighton, MA 02135";"Monday - Friday: \n 8:30 am-4:30 pm";"(617) 782-6540, Press 1";"Clerk's Office";true;"(617) 782-6540, Press 6";"Probation Department";false;"(617) 789-4283";"TTY";false;N/A;N/A;false;N/A;N/A;false;N/A;N/A;false;N/A;N/A;false;N/A;N/A;false;N/A;N/A;false;N/A;N/A;false;N/A;N/A;false;"(617) 254-2127";"Clerk's Office";true;"(617) 789-5345";"Probation Department";false;N/A;N/A;false;N/A;N/A;false;N/A;N/A;false;N/A;N/A;false;"\"Paula Woodley\".";None detected;Not yet handled
"Central Division, Boston Municipal Court";https://www.mass.gov/locations/central-division-boston-municipal-court;"This court serves the Downtown Boston area, Chinatown, North End, South End through Massachusetts Avenue, West End, and Beacon Hill.";"24 New Chardon Street, Edward W. Brooke Courthouse, Boston, MA 02114";"Monday - Friday: \n 8:30 am-4:30 pm";"(617) 788-8600";None detected;false;"(617) 788-8426";"Probation Department";false;N/A;N/A;false;N/A;N/A;false;N/A;N/A;false;N/A;N/A;false;N/A;N/A;false;N/A;N/A;false;N/A;N/A;false;N/A;N/A;false;N/A;N/A;false;"(617) 788-8465";None detected;false;"(617) 788-8432";"Probation Department";false;N/A;N/A;false;N/A;N/A;false;N/A;N/A;false;N/A;N/A;false;"\"Maureen Sharry\". \"Marcella Gerardi\". \"Jurors Only\".";None detected;Not yet handled
"Charlestown Division, Boston Municipal Court";https://www.mass.gov/locations/charlestown-division-boston-municipal-court;"The Charlestown Division of the Boston Municipal Court serves Charlestown.";"3 City Square, Charlestown, MA 02129";"Monday - Friday: \n 8:30 am-4:30 pm";"(617) 242-5400";"Clerk's Office";true;"(617) 242-1230";"Probation Department";false;"(617) 242-5400";"Clerk's Office";true;"(617) 242-1230";"Probation Department";false;N/A;N/A;false;N/A;N/A;false;N/A;N/A;false;N/A;N/A;false;N/A;N/A;false;N/A;N/A;false;N/A;N/A;false;"(617) 242-1677";"Clerk's Office";true;"(617) 242-2117";"Probation Department";false;N/A;N/A;false;N/A;N/A;false;N/A;N/A;false;N/A;N/A;false;"\"Stephen Pearson\". \"Peri Nawawi\". \"Jurors Only\".";None detected;Not yet handled
"Dorchester Division, Boston Municipal Court";https://www.mass.gov/locations/dorchester-division-boston-municipal-court;"This court serves Dorchester.";"510 Washington St., Dorchester, MA 02124";"Monday - Friday: \n 8:30 am-4:30 pm";"(617) 288-9500";"Clerk's Office";true;"(617) 288-9500";"Probation Department";false;"(617) 287-2870";"TTY";false;N/A;N/A;false;N/A;N/A;false;N/A;N/A;false;N/A;N/A;false;N/A;N/A;false;N/A;N/A;false;N/A;N/A;false;N/A;N/A;false;"(617) 436-8250";"Clerk's Office";true;"(617) 288-7430";"Probation Department";false;N/A;N/A;false;N/A;N/A;false;N/A;N/A;false;N/A;N/A;false;"\"Sarah Kennedy\". \"Jurors Only\".";None detected;Not yet handled
"East Boston Division, Boston Municipal Court";https://www.mass.gov/locations/east-boston-division-boston-municipal-court;"This court serves East Boston, Winthrop, Logan Airport, and the Sumner and Callahan Tunnels.";"37 Meridian St., East Boston, MA 02128";"Monday - Friday: \n 8:30 am-4:30 pm";"(617) 569-7550";"Clerk's Office";true;"(617) 569-7553";"Probation Department";false;"(617) 569-7550";"TTY";false;N/A;N/A;false;N/A;N/A;false;N/A;N/A;false;N/A;N/A;false;N/A;N/A;false;N/A;N/A;false;N/A;N/A;false;N/A;N/A;false;"(617) 561-4988";"Clerk's Office";true;"(617) 569-8458";"Probation Department";false;N/A;N/A;false;N/A;N/A;false;N/A;N/A;false;N/A;N/A;false;"\"Ariel G. Madaro\". \"Karamarie Doherty\".";None detected;Not yet handled
"Roxbury Division, Boston Municipal Court";https://www.mass.gov/locations/roxbury-division-boston-municipal-court;"This court serves Roxbury.";"85 Warren St., Roxbury, MA 02119";"Monday - Friday: \n 8:30 am-4:30 pm";"(617) 427-7000";"Clerk’s Office";true;"(617) 427-7000";"Probation Department";false;N/A;N/A;false;N/A;N/A;false;N/A;N/A;false;N/A;N/A;false;N/A;N/A;false;N/A;N/A;false;N/A;N/A;false;N/A;N/A;false;N/A;N/A;false;"(617) 541-0286";"Clerk’s Office";true;"(617) 442-2786";"Probation Department";false;N/A;N/A;false;N/A;N/A;false;N/A;N/A;false;N/A;N/A;false;"\"Vilma Altamirano\". \"Jurors Only\".";None detected;Not yet handled
"South Boston Division, Boston Municipal Court";https://www.mass.gov/locations/south-boston-division-boston-municipal-court;"This court serves South Boston.";"535 East Broadway, South Boston, MA 02127";"Monday - Friday: \n 8:30 am-4:30 pm";"(617) 268-9292";"Clerk’s Office";true;"(617) 268-0234";"Probation Department";false;N/A;N/A;false;N/A;N/A;false;N/A;N/A;false;N/A;N/A;false;N/A;N/A;false;N/A;N/A;false;N/A;N/A;false;N/A;N/A;false;N/A;N/A;false;"(617) 268-7321";"Clerk’s Office";true;"(617) 464-3804";"Probation Department";false;N/A;N/A;false;N/A;N/A;false;N/A;N/A;false;N/A;N/A;false;"\"Debra Hunt\". \"Lori Previte\".";None detected;Not yet handled
"West Roxbury Division, Boston Municipal Court";https://www.mass.gov/locations/west-roxbury-division-boston-municipal-court;"This court serves Hyde Park, Jamaica Plain, Roslindale, West Roxbury, parts of Mattapan, and parts of Mission Hill.";"445 Arborway, Jamaica Plain, MA 02130";"Monday - Friday: \n 8:30 am-4:30 pm";"(617) 971-1200";"Clerk's Office";true;"(617) 971-1200";"Probation Department";false;"(617) 522-3778";"TTY";false;N/A;N/A;false;N/A;N/A;false;N/A;N/A;false;N/A;N/A;false;N/A;N/A;false;N/A;N/A;false;N/A;N/A;false;N/A;N/A;false;"(617) 983-0243";"Clerk's Office";true;"(617) 524-6142";"Probation Department";false;N/A;N/A;false;N/A;N/A;false;N/A;N/A;false;N/A;N/A;false;"\"Brian K. Doxtader\". \"Jurors Only\".";None detected;Not yet handled
"Chelsea District Court";https://www.mass.gov/locations/chelsea-district-court;"This court serves Chelsea and Revere.";"120 Broadway, Chelsea, MA 02150";"Monday - Friday: \n 8:30 am-4:30 pm";"(617) 660-9200";"Clerk's Office";true;"(617) 660-9300";"Probation Department";false;N/A;N/A;false;N/A;N/A;false;N/A;N/A;false;N/A;N/A;false;N/A;N/A;false;N/A;N/A;false;N/A;N/A;false;N/A;N/A;false;N/A;N/A;false;"(617) 660-9215";"Clerk's Office";true;"(617) 660-9308";"Probation Department";false;N/A;N/A;false;N/A;N/A;false;N/A;N/A;false;N/A;N/A;false;"\"Carmine DiRuzza\". \"Jurors Only\".";None detected;Not yet handled
"Eastern Housing Court";https://www.mass.gov/locations/eastern-housing-court;"The Eastern Division of the Housing Court serves Boston and Brookline.";"24 New Chardon St., Boston, MA 02114";"Monday - Friday: \n 8:30 am-4:30 pm";"(617) 788-8486";"Clerk's Office";true;"(617) 788-6233";"Housing Specialist Department";false;N/A;N/A;false;N/A;N/A;false;N/A;N/A;false;N/A;N/A;false;N/A;N/A;false;N/A;N/A;false;N/A;N/A;false;N/A;N/A;false;N/A;N/A;false;N/A;N/A;false;N/A;N/A;false;N/A;N/A;false;N/A;N/A;false;N/A;N/A;false;N/A;N/A;false;"\"Natasha Woodley\". \"Phone:\". \"Fax:\". \"Email:\".";None detected;Not yet handled
"Eastern Housing Court - Chelsea Session";https://www.mass.gov/locations/eastern-housing-court-chelsea-session;"Eastern Housing Court Division – Chelsea Session is located in Chelsea District Court. Mondays are the regular weekly sitting. This sitting will serve Chelsea, Revere, Winthrop, and East Boston.";"120 Broadway, Chelsea, MA 02150";"Monday 8:30 a.m. This location is only open every second Monday of the month.";"(617) 788-8485";"Clerk’s Office";true;"(617) 788-6233";"Housing Specialist Department";false;N/A;N/A;false;N/A;N/A;false;N/A;N/A;false;N/A;N/A;false;N/A;N/A;false;N/A;N/A;false;N/A;N/A;false;N/A;N/A;false;N/A;N/A;false;N/A;N/A;false;N/A;N/A;false;N/A;N/A;false;N/A;N/A;false;N/A;N/A;false;N/A;N/A;false;"\"Natasha Woodley\". \"Phone:\". \"Fax:\". \"Email:\". \"Jurors Only\".";"\"Every second Monday of the month\".";Not yet handled
"Boston Juvenile Court";https://www.mass.gov/locations/boston-juvenile-court;"The Suffolk County Juvenile Court in Boston serves Brighton, Charlestown, Roxbury and South Boston for delinquency, harassment, and criminal cases. Care and protection, child requiring assistance (CRA) and jury trials for all sessions in Suffolk County are held here.\n\nThe mailing address for this court is:\n\n24 New Chardon St., P.O. Box 9663, Boston, MA 02114";"24 New Chardon St., Boston, MA 02114";"Monday - Friday: \n 8:30 am-4:30 pm";"(617) 788-8525";"Clerk’s Office";true;"(617) 788-8571";"Probation Department";false;N/A;N/A;false;N/A;N/A;false;N/A;N/A;false;N/A;N/A;false;N/A;N/A;false;N/A;N/A;false;N/A;N/A;false;N/A;N/A;false;N/A;N/A;false;"(617) 788-8974";"Clerk’s Office";true;"(617) 788-8972";"Probation Department";false;N/A;N/A;false;N/A;N/A;false;N/A;N/A;false;N/A;N/A;false;"\"Diane McDermott\". \"Jurors Only\".";"\"Edward W. Brooke Courthouse\".";Not yet handled
"Chelsea Juvenile Court";https://www.mass.gov/locations/chelsea-juvenile-court;"The Suffolk County Juvenile Court in Chelsea serves Chelsea, Revere, East Boston, and Winthrop for delinquency, harassment and criminal cases. Care and protection, child requiring assistance and jury trials for all sessions are heard in the Boston session.  Substance abuse and mental Illness cases are heard in all sites within the Suffolk County Juvenile Court.";"120 Broadway, Chelsea, MA 02150";"Monday - Friday: \n 8:30 am-4:30 pm";"(617) 660-9225";"Clerk’s Office";true;"(617) 660-9241";"Probation Department";false;N/A;N/A;false;N/A;N/A;false;N/A;N/A;false;N/A;N/A;false;N/A;N/A;false;N/A;N/A;false;N/A;N/A;false;N/A;N/A;false;N/A;N/A;false;"(617) 660-9222";"Probation Department Fax";false;N/A;N/A;false;N/A;N/A;false;N/A;N/A;false;N/A;N/A;false;N/A;N/A;false;"\"Colleen Moran\".";None detected;Not yet handled
"Dorchester Juvenile Court";https://www.mass.gov/locations/dorchester-juvenile-court;"This court is formally called the Suffolk County Juvenile Court - Dorchester. Delinquency, harassment and criminal cases for the area covered by the Boston Police's Dorchester Division. \nAll care and protections, child requiring assistance and jury trials are heard in the Boston session.  Substance abuse and mental Illness cases are heard in all sites within the Suffolk County Juvenile Court.";"510 Washington St., Dorchester, MA 02124";"Monday - Friday: \n 8:30 am-4:30 pm";"(617) 288-9500 x400";"Clerk’s Office";true;"(617) 288-9500 x411";"Probation Department";false;N/A;N/A;false;N/A;N/A;false;N/A;N/A;false;N/A;N/A;false;N/A;N/A;false;N/A;N/A;false;N/A;N/A;false;N/A;N/A;false;N/A;N/A;false;"(617) 436-3595";"Probation Department Fax";false;N/A;N/A;false;N/A;N/A;false;N/A;N/A;false;N/A;N/A;false;N/A;N/A;false;"\"Kim MacDonald\". \"Leslie Martinez\".";None detected;Not yet handled
"West Roxbury Juvenile Court";https://www.mass.gov/locations/west-roxbury-juvenile-court;"This court is formally called Suffolk County Juvenile Court-West Roxbury. Delinquency, harassment and criminal cases for the area covered by the Boston Police's West Roxbury Division. All care and protections, child requiring assistance and jury trials are heard in the Boston session.  Substance abuse and mental Illness cases are heard in all sites within the Suffolk County Juvenile Court.";"445 Arborway, Jamaica Plain, MA 02130";"Monday - Friday: \n 8:30 am-4:30 pm";"(617) 971-1154";"Clerk’s Office";true;"(617) 971-1246";"Probation Department";false;N/A;N/A;false;N/A;N/A;false;N/A;N/A;false;N/A;N/A;false;N/A;N/A;false;N/A;N/A;false;N/A;N/A;false;N/A;N/A;false;N/A;N/A;false;"(617) 524-7335";"Probation Department Fax";false;N/A;N/A;false;N/A;N/A;false;N/A;N/A;false;N/A;N/A;false;N/A;N/A;false;"\"Maria Hidalgo\".";None detected;Not yet handled
"Suffolk Probate and Family Court";https://www.mass.gov/locations/suffolk-probate-and-family-court;"This court serves Boston, Brighton, Charlestown, Chelsea, Dorchester, East Boston, Hyde Park, Jamaica Plain, Revere, Roslindale, South Boston, and Winthrop. \n\nFor all Suffolk Probate and Family Court inquiries, please go to the Suffolk Probate and Family Court Virtual Registry.";"24 New Chardon St., Boston , MA 02114";"Monday - Friday: \n 8:30 am-4:30 pm";"(617) 788-8301";"Register's Office";false;"(617) 788-8210";"Probation Department";false;N/A;N/A;false;N/A;N/A;false;N/A;N/A;false;N/A;N/A;false;N/A;N/A;false;N/A;N/A;false;N/A;N/A;false;N/A;N/A;false;N/A;N/A;false;"(617) 788-8962";"Register's Office";false;"(617) 788-8957";"Probation Department";false;N/A;N/A;false;N/A;N/A;false;N/A;N/A;false;N/A;N/A;false;"\"Tanya Brussa-Pagan\".";None detected;Not yet handled
"Suffolk County Superior Court";https://www.mass.gov/locations/suffolk-county-superior-court;"This court serves Boston, Winthrop, Chelsea, and Revere.";"3 Pemberton Square, Boston, MA 02108";"Monday - Friday: \n 8:30 am-4:30 pm";"(617) 788-8175";"Civil Clerk’s Office";true;"(617) 788-8160";"Criminal Clerk’s Office";true;"(617) 788-7255";"Probation Department";false;N/A;N/A;false;N/A;N/A;false;N/A;N/A;false;N/A;N/A;false;N/A;N/A;false;N/A;N/A;false;N/A;N/A;false;N/A;N/A;false;"(617) 788-7798";"Criminal Clerk’s Office";true;"(617) 788-7277";"Probation Department";false;N/A;N/A;false;N/A;N/A;false;N/A;N/A;false;N/A;N/A;false;"\"CIVIL\". \"Paul Kenneally\". \"Philip Drapos\". \"CRIMINAL\". \"Abigail Bryan\". \"Jurors Only\".";"\"Suffolk County Courthouse\". \"Criminal Clerk’s Office (for Criminal Business)\". \"Civil Clerk’s Office (for Civil Business)\". \"Probation Department (for Criminal Business)\".";Not yet handled
"Worcester Juvenile Court";https://www.mass.gov/locations/worcester-juvenile-court;"The Worcester County Juvenile Court in Worcester serves Auburn, Barre, Berlin, Bolton, Boylston, Brookfield, Clinton, East Brookfield, Grafton, Hardwick, Harvard, Holden, Lancaster, Leicester, Millbury, New Braintree, Northborough, North Brookfield, Oakham, Paxton, Rutland, Shrewsbury, Southborough, Spencer, Sterling, Warren, Westborough, West Boylston, West Brookfield and Worcester.";"225 Main Street, Worcester, MA 01608";"Monday - Friday: \n 8:30 am-4:30 pm";"(508) 831-2000";"Clerk's Office";true;"(508) 831-2440";"Probation Department";false;N/A;N/A;false;N/A;N/A;false;N/A;N/A;false;N/A;N/A;false;N/A;N/A;false;N/A;N/A;false;N/A;N/A;false;N/A;N/A;false;N/A;N/A;false;N/A;N/A;false;N/A;N/A;false;N/A;N/A;false;N/A;N/A;false;N/A;N/A;false;N/A;N/A;false;"\"Todd Jarvis\". \"Jurors Only\".";None detected;Not yet handled
"Dudley Juvenile Court";https://www.mass.gov/locations/dudley-juvenile-court;"The Worcester County Juvenile Court in Dudley serves Charlton, Dudley, Oxford, Southbridge, Sturbridge, and Webster.";"100 West Main Street, Dudley, MA 01571";"Monday - Friday: \n 8:30 am-4:30 pm";"(508) 949-3070";"Clerk's Office and Probation Department";true;N/A;N/A;false;N/A;N/A;false;N/A;N/A;false;N/A;N/A;false;N/A;N/A;false;N/A;N/A;false;N/A;N/A;false;N/A;N/A;false;N/A;N/A;false;N/A;N/A;false;N/A;N/A;false;N/A;N/A;false;N/A;N/A;false;N/A;N/A;false;N/A;N/A;false;N/A;N/A;false;"\"Will George\".";None detected;Not yet handled
"Fitchburg Juvenile Court";https://www.mass.gov/locations/fitchburg-juvenile-court;"The Worcester County Juvenile Court in Fitchburg serves Ashburnham, Fitchburg, Gardner, Hubbardston, Lunenburg, Petersham, Phillipston, Royalston, Templeton, Westminster and Winchendon.";"120 Elm Street, Fitchburg, MA 01420";"Monday - Friday: \n 8:30 am-4:30 pm";"(978) 345-7620";"Clerk's Office and Probation Department";true;N/A;N/A;false;N/A;N/A;false;N/A;N/A;false;N/A;N/A;false;N/A;N/A;false;N/A;N/A;false;N/A;N/A;false;N/A;N/A;false;N/A;N/A;false;N/A;N/A;false;N/A;N/A;false;N/A;N/A;false;N/A;N/A;false;N/A;N/A;false;N/A;N/A;false;N/A;N/A;false;"\"Sharon Shosey\". \"Denise Vasko\". \"Jurors Only\".";None detected;Not yet handled
"Milford Juvenile Court";https://www.mass.gov/locations/milford-juvenile-court;"The Worcester County Juvenile Court in Milford serves Bellingham, Blackstone, Douglas, Hopedale, Mendon, Milford, Millville, Northbridge, Sutton, Upton, and Uxbridge.";"161 West Street, Milford, MA 01757";"Monday - Friday: \n 8:30 am-4:30 pm";"(508) 478-8638";"Clerk's Office";true;"(508) 478-8422";"Probation Department";false;N/A;N/A;false;N/A;N/A;false;N/A;N/A;false;N/A;N/A;false;N/A;N/A;false;N/A;N/A;false;N/A;N/A;false;N/A;N/A;false;N/A;N/A;false;N/A;N/A;false;N/A;N/A;false;N/A;N/A;false;N/A;N/A;false;N/A;N/A;false;N/A;N/A;false;"\"Thomas Carrigan\".";None detected;Not yet handled
"Clinton District Court";https://www.mass.gov/locations/clinton-district-court;"This court serves Berlin, Bolton, Boylston, Clinton, Harvard, Lancaster, Sterling, and West Boylston.";"300 Boylston St., Clinton, MA 01510";"Monday - Friday: \n 8:30 am-4:30 pm";"(978) 368-7811";"Clerk's Office";true;"(978) 368-7816";"Probation Department";false;N/A;N/A;false;N/A;N/A;false;N/A;N/A;false;N/A;N/A;false;N/A;N/A;false;N/A;N/A;false;N/A;N/A;false;N/A;N/A;false;N/A;N/A;false;"(978) 368-7827";"Clerk's Office";true;"(978) 368-3371";"Probation Department";false;N/A;N/A;false;N/A;N/A;false;N/A;N/A;false;N/A;N/A;false;"\"Mary Rauscher\". \"Jurors Only\".";None detected;Not yet handled
"Dudley District Court";https://www.mass.gov/locations/dudley-district-court;"This court serves Charlton, Dudley, Oxford, Southbridge, Sturbridge, and Webster.";"279 West Main St., Dudley, MA 01571";"Monday - Friday: \n 8:30 am-4:30 pm";"(508) 943-7123";Assumed primary number;false;"(508) 943-7123";"Civil Department";false;"(508) 943-7123";"Criminal Department";false;"(508) 943-7123";"Hearings";false;"(508) 943-7123";"Small Claims Department";false;N/A;N/A;false;N/A;N/A;false;N/A;N/A;false;N/A;N/A;false;N/A;N/A;false;N/A;N/A;false;N/A;N/A;false;N/A;N/A;false;N/A;N/A;false;N/A;N/A;false;N/A;N/A;false;N/A;N/A;false;"\"Susan Benes\". \"Jose Rivera\". \"Jurors Only\".";None detected;Not yet handled
"East Brookfield District Court";https://www.mass.gov/locations/east-brookfield-district-court;"This court serves Barre, Brookfield, East Brookfield, Hardwick, Leicester, New Braintree, North Brookfield, Oakham, Paxton, Rutland, Spencer, Warren, and West Brookfield.";"544 East Main Street, East Brookfield, MA 01515";"Monday - Friday: \n 8:30 am-4:30 pm";"(508) 885-6305";"Clerk's Office";true;"(508) 885-6307";"Probation Department";false;N/A;N/A;false;N/A;N/A;false;N/A;N/A;false;N/A;N/A;false;N/A;N/A;false;N/A;N/A;false;N/A;N/A;false;N/A;N/A;false;N/A;N/A;false;"(508) 885-7623";"Clerk's Office";true;"(508) 885-7331";"Probation Department";false;N/A;N/A;false;N/A;N/A;false;N/A;N/A;false;N/A;N/A;false;"\"Jill Dupuis\". \"Angela Lawrence\". \"Jurors Only\".";"\"For Jury Trials\".";Not yet handled
"Fitchburg District Court";https://www.mass.gov/locations/fitchburg-district-court;"This court serves Fitchburg and Lunenburg.";"100 Elm St., Fitchburg, MA 01420";"Monday - Friday: \n 8:30 am-4:30 pm";"(978) 345-2111";"Clerk's Office";true;"(978) 345-2111";"Probation Department";false;N/A;N/A;false;N/A;N/A;false;N/A;N/A;false;N/A;N/A;false;N/A;N/A;false;N/A;N/A;false;N/A;N/A;false;N/A;N/A;false;N/A;N/A;false;"(978) 342-2461";"Clerk's Office";true;"(978) 343-6204";"Probation Department";false;N/A;N/A;false;N/A;N/A;false;N/A;N/A;false;N/A;N/A;false;"\"Denise Vasko\". \"Jurors Only\".";None detected;Not yet handled
"Gardner District Court";https://www.mass.gov/locations/gardner-district-court;"This court serves Gardner, Hubbardston, Petersham, and Westminster.";"108 Matthews St., Gardner, MA 01440";"Monday - Friday: \n 8:30 am-4:30 pm";"(978) 632-2373";"Clerk’s Office";true;"(978) 632-4276";"Probation Department";false;N/A;N/A;false;N/A;N/A;false;N/A;N/A;false;N/A;N/A;false;N/A;N/A;false;N/A;N/A;false;N/A;N/A;false;N/A;N/A;false;N/A;N/A;false;"(978) 630-3902";"Clerk’s Office";true;"(978) 630-2417";"Probation Department";false;N/A;N/A;false;N/A;N/A;false;N/A;N/A;false;N/A;N/A;false;"\"Kimberly A Walsh\".";None detected;Not yet handled
"Leominster District Court";https://www.mass.gov/locations/leominster-district-court;"This court serves Holden, Princeton, and Leominster.";"25 School St., Leominster, MA 01453";"Monday - Friday: \n 8:30 am-4:30 pm";"(978) 537-3722";"Clerk’s Office";true;"(978) 537-3846";"Probation Department";false;N/A;N/A;false;N/A;N/A;false;N/A;N/A;false;N/A;N/A;false;N/A;N/A;false;N/A;N/A;false;N/A;N/A;false;N/A;N/A;false;N/A;N/A;false;"(978) 537-3970";"Clerk’s Office";true;"(978) 534-1654";"Probation Department";false;N/A;N/A;false;N/A;N/A;false;N/A;N/A;false;N/A;N/A;false;"\"Sheila Carter\".";None detected;Not yet handled
"Milford District Court";https://www.mass.gov/locations/milford-district-court;"This court serves Mendon, Upton, Hopedale, Milford, and Bellingham.";"161 West St., Milford, MA 01757";"Monday - Friday: \n 8:30 am-4:30 pm";"(508) 473-1260";"Clerk’s Office";true;"(508) 473-4541";"Probation Department";false;N/A;N/A;false;N/A;N/A;false;N/A;N/A;false;N/A;N/A;false;N/A;N/A;false;N/A;N/A;false;N/A;N/A;false;N/A;N/A;false;N/A;N/A;false;"(508) 634-8477";"Clerk’s Office";true;"(508) 478-8851";"Probation Department";false;N/A;N/A;false;N/A;N/A;false;N/A;N/A;false;N/A;N/A;false;"\"Thomas Carrigan\".";None detected;Not yet handled
"Uxbridge District Court";https://www.mass.gov/locations/uxbridge-district-court;"This court serves Blackstone, Douglas, Millville, Northbridge, Sutton and Uxbridge.";"261 South Main Street, Uxbridge, MA 01569";"Monday - Friday: \n 8:30 am-4:30 pm";"(508) 278-2454";"Clerk's Office";true;"(508) 278-2408";"Probation Department";false;"(508) 278-9535";"TTY";false;N/A;N/A;false;N/A;N/A;false;N/A;N/A;false;N/A;N/A;false;N/A;N/A;false;N/A;N/A;false;N/A;N/A;false;N/A;N/A;false;"(508) 278-2929";"Clerk's Office";true;"(508) 278-5603";"Probation Department";false;N/A;N/A;false;N/A;N/A;false;N/A;N/A;false;N/A;N/A;false;"\"Colleen Foley\".";None detected;Not yet handled
"Westborough District Court";https://www.mass.gov/locations/westborough-district-court;"This court serves Grafton, Northborough, Shrewsbury, Southborough and Westborough.";"186 Oak Street, Westborough, MA 01581";"Monday - Friday: \n 8:30 am-4:30 pm";"(508) 366-8266";"Clerk's Office";true;"(508) 366-1204";"Probation Department";false;"(508) 366-8266";"Criminal Clerk";true;"(508) 366-8266";"Civil Clerk";true;"(508) 366-8266";"Small Claims";false;N/A;N/A;false;N/A;N/A;false;N/A;N/A;false;N/A;N/A;false;N/A;N/A;false;N/A;N/A;false;"(508) 366-8268";"Clerk's Office";true;"(508) 366-6940";"Probation Department";false;N/A;N/A;false;N/A;N/A;false;N/A;N/A;false;N/A;N/A;false;"\"Kimberly Cancelli\".";None detected;Not yet handled
"Winchendon District Court";https://www.mass.gov/locations/winchendon-district-court;"The Winchendon District Court sits in Gardner and serves Ashburnham, Phillipston, Royalston, Templeton and Winchendon.";"108 Matthews Street, Gardner District Court, Gardner, MA 01440";"Monday - Friday: \n 8:30 am-4:30 pm";"(978) 632-6326";"Clerk's Office and Probation Department";true;N/A;N/A;false;N/A;N/A;false;N/A;N/A;false;N/A;N/A;false;N/A;N/A;false;N/A;N/A;false;N/A;N/A;false;N/A;N/A;false;N/A;N/A;false;N/A;N/A;false;"(978) 630-3902";"Clerk's Office";true;"(978) 630-2417";"Probation Department";false;N/A;N/A;false;N/A;N/A;false;N/A;N/A;false;N/A;N/A;false;"\"Kimberly A Walsh\".";None detected;Not yet handled
"Worcester District Court";https://www.mass.gov/locations/worcester-district-court;"The Worcester District Court serves Auburn, Millbury, and Worcester.";"225 Main St., Worcester, MA 01608";"Monday - Friday: \n 8:30 am-4:30 pm";"(508) 831-2010";"Clerk’s Office";true;"(508) 831-2010";"Probation Department";false;N/A;N/A;false;N/A;N/A;false;N/A;N/A;false;N/A;N/A;false;N/A;N/A;false;N/A;N/A;false;N/A;N/A;false;N/A;N/A;false;N/A;N/A;false;"(508) 797-0716";"Clerk's Office";true;"(508) 752-6191";"Probation Department";false;N/A;N/A;false;N/A;N/A;false;N/A;N/A;false;N/A;N/A;false;"\"Felicia Guinard\". \"Toni Tucker\". \"Jurors Only\".";None detected;Not yet handled
"Central Housing Court - Worcester Session";https://www.mass.gov/locations/central-housing-court-worcester-session;"The Worcester session of the Central Division of the Housing Court serves Auburn, Barre, Blackstone, Boylston, Brookfield, Clinton, Douglas, East Brookfield, Grafton, Hardwick, Hopedale, Lancaster, Leicester, Mendon, Milford, Millbury, Millville, New Braintree, Northbridge, North Brookfield, Oakham, Oxford, Paxton, Rutland, Shrewsbury, Spencer, Sterling, Sutton, Upton, Uxbridge, Warren, West Boylston, and Worcester.";"225 Main St., Worcester, MA 01608";"Monday - Friday: \n 8:30 am-4:30 pm";"(508) 831-2050";"Clerk's Office and Housing Specialist Department";true;N/A;N/A;false;N/A;N/A;false;N/A;N/A;false;N/A;N/A;false;N/A;N/A;false;N/A;N/A;false;N/A;N/A;false;N/A;N/A;false;N/A;N/A;false;N/A;N/A;false;N/A;N/A;false;N/A;N/A;false;N/A;N/A;false;N/A;N/A;false;N/A;N/A;false;N/A;N/A;false;"\"Katie LaGorce\". \"Aracelis Arroyo Centeno\".";None detected;Not yet handled
"Central Housing Court - Dudley Session";https://www.mass.gov/locations/central-housing-court-dudley-session;"The Dudley session of the Central Division of the Housing Court serves Charlton, Dudley, Oxford, Southbridge, Sturbridge, and Webster";"279 West Main St., Dudley District Court, Dudley, MA 01571";"This location is open only when court is in session Monday afternoon.";"(508) 831-2050";"Clerk's Office and Housing Specialist Department";true;N/A;N/A;false;N/A;N/A;false;N/A;N/A;false;N/A;N/A;false;N/A;N/A;false;N/A;N/A;false;N/A;N/A;false;N/A;N/A;false;N/A;N/A;false;N/A;N/A;false;N/A;N/A;false;N/A;N/A;false;N/A;N/A;false;N/A;N/A;false;N/A;N/A;false;N/A;N/A;false;"\"Katie LaGorce\". \"Aracelis Arroyo Centeno\".";None detected;Not yet handled
"Central Housing Court - Leominster Session";https://www.mass.gov/locations/central-housing-court-leominster-session;"The Leominster session of the Central Division of the Housing Court serves Ashburnham, Athol, Fitchburg, Gardner, Holden, Hubbardston, Leominster, Lunenberg, Petersham, Phillipston, Princeton, Royalston, Templeton, Westminster, and Winchendon.";"25 School St., Leominster District Court, Leominster, MA 01453";"This location is open only when court is in session Friday morning.";"(508) 831-2050";"Clerk's Office and Housing Specialists Department";true;N/A;N/A;false;N/A;N/A;false;N/A;N/A;false;N/A;N/A;false;N/A;N/A;false;N/A;N/A;false;N/A;N/A;false;N/A;N/A;false;N/A;N/A;false;N/A;N/A;false;N/A;N/A;false;N/A;N/A;false;N/A;N/A;false;N/A;N/A;false;N/A;N/A;false;N/A;N/A;false;"\"Katie LaGorce\". \"Aracelis Arroyo Centeno\".";None detected;Not yet handled
"Worcester Probate and Family Court";https://www.mass.gov/locations/worcester-probate-and-family-court;"This court serves all cities and towns in Worcester County.";"225 Main Street , Worcester, MA 01608";"Monday - Friday: \n 8:30 am-4:30 pm";"(508) 831-2200";"Register's Office and Probation Department";false;N/A;N/A;false;N/A;N/A;false;N/A;N/A;false;N/A;N/A;false;N/A;N/A;false;N/A;N/A;false;N/A;N/A;false;N/A;N/A;false;N/A;N/A;false;N/A;N/A;false;"(508) 752-6138";"Register's Office";false;N/A;N/A;false;N/A;N/A;false;N/A;N/A;false;N/A;N/A;false;N/A;N/A;false;"\"Alicia Doherty\". \"Megan Brown\".";None detected;Not yet handled
"Worcester County Superior Court";https://www.mass.gov/locations/worcester-county-superior-court;"This court serves all cities and towns in Worcester County.";"225 Main St., Worcester, MA 01608";"Monday - Friday: \n 8:30 am-4:30 pm";"(508) 831-2300";"Clerk's Office";true;"(508) 831-2370";"Probation Department";false;N/A;N/A;false;N/A;N/A;false;N/A;N/A;false;N/A;N/A;false;N/A;N/A;false;N/A;N/A;false;N/A;N/A;false;N/A;N/A;false;N/A;N/A;false;"(508) 798-3216";"Probation Department";false;N/A;N/A;false;N/A;N/A;false;N/A;N/A;false;N/A;N/A;false;N/A;N/A;false;"\"Amanda Karalus\". \"Jurors Only\".";None detected;Not yet handled